Dealer #,Name ,Street Name,City,State,Country,Postal Code,Comments
50008433,3H CUSTOMS LLC (AG),59389 645TH STREET,ATLANTIC,Iowa,USA,50022,"Farm Supply Retailer, nothing on website"
50009446,3KD INC DBA PERFORMANCE LINE TOOL C,130 S. TELEGRAPH RD.,WATERFORD,Michigan,USA,48328,"Power and construction tools, nothing on website."
50006690,"4 RIVERS EQUIPMENT, LLC",924 11TH STREET,GREELEY,Colorado,USA,80631,"Yes, paired with heavy equipment https://www.4riversequipment.com/technology/"
50005475,"5D SOLUTIONS, INC.","270 BOEING AVE, SUITE 4",CHICO,California,USA,95973,"Yes, they have Topcon https://5dsolutionsinc.com/3d-grade-management-system/"
50006410,A & B DIE CASTING INC.,900 ALFRED NOBEL DRIVE,HERCULES,California,USA,94547,"Die Casting company, nothing on website"
50000707,A & D TECHNICAL SUPPLY CO INC OMAHA,4320 S 89TH STREET,OMAHA,Nebraska,USA,68127-1519,"Printing, Scanning, and Wedding Décor, nothing on website"
50007846,A1 WEIGHING EQUIPMENT PTY LTD (AG),31 MORT ST,TOOWOOMBA,Queensland,Australia,4350,"Weighing Equipment, nothing on website"
50001384,"A2Z RENTALS, INC (CH)",2300 LOCKPORT ROAD,SANBORN,New York,USA,14132,"Construction Rentals, nothing on website"
50009049,AARON BEAVER FARMS (AG),PO BOX 258,ISLETON,California,USA,95641,Contractor no website
50007921,AB TECH KK (AG),"35-14 NISHI-KAMATA-CHO, 6 CHOME",OHATA-KU,Tokyo,Japan,1440051,Could not find website
50000300,ABC BLUEPRINT (CH),PO DRAWER 15145,AMARILLO,Texas,USA,79106-5671,"Reprographics (Reproducing content), copying, and printing services, nothing on website"
50006536,ABC EQUIPMENT RENTAL INC. (CH),800 GEIPE ROAD,CATONSVILLE,Maryland,USA,22128,"Equipment Rentals, nothing on website"
50008872,ABELARDO CUFFIA S.A.,RUTA NAC. 9 KM 443,MARCOS JUAREZ,Cordoba,Argentina,2580,"Precision Agriculture Equipment, nothing on website"
50001547,ABLE TOOL AND EQUIPMENT (channel),410 BURNHAM ST.,SOUTH WINDSOR,Connecticut,USA,6074,"Construction industry sales and rentals, nothing on website"
50003453,ABSOLUTE ACCURACY (CH),2451 RIVERSIDE DRIVE,LOS ANGELES,California,USA,90039,"Yes, they have Topcon and Sokkia https://aaisurvey.com/pres/index.php?id_category=378&controller=category"
50000555,ACCURATE LASER SYSTEMS,2855 TOBEY DRIVE,INDIANAPOLIS,Indiana,USA,46219,"Yes, they have Topcon  http://accuratelasersystems.com/index_files/ourproducts.htm"
50000755,ACME ELECTRIC/TOOL CRIB (CH),PO BOX 13720,GRAND FORKS,North Dakota,USA,58208-3720,"Equipment sales (Kubota), nothing on website"
50001439,ACME LIFT COMPANY (AZ),4751 E INDIGO STREET,MESA,Arizona,USA,85205,"Large Equipment rentals (earth movers), nothing on website"
50004996,ACS ALL CONSTRUCTION SUPPLY LLC (CH,648 N NEVA AVENUE,ADDISON,Illinois,USA,60101,"Construction equipment sales, nothing on website"
50006819,ACTION EQUIPMENT RENTAL (CH),415 WEST MAIN STREET,NORWICH,Connecticut,USA,360,"Construction Rental and sales, nothing on website"
50000744,"ADMAR SUPPLY CO., INC.",1950 BRIGHTON-HENRIETTA TL RD.,ROCHESTER,New York,USA,14623,"Yes, they have Sokkia https://admarsupply.com/positioning-solutions-product-catalog/"
50001390,ADVANCE RENTAL AND CONSTRUCTION SUP,398 QUAKER RD.,QUEENSBURY,New York,USA,12804,"Yes, they have Topcon https://advancerentalandsupply.com/rental-equipment/?w=photocat&phcat=98"
50005948,ADVANCED AERIAL INSPECTION RESOURCE,32628 DECKER PRAIRIE ROAD SUITE 1,MAGNOLIA,Texas,USA,77355,"Drone inspection service, nothing on website"
50001636,ADVANCED FASTENING SUPPLY (channel),2201 ADVANCE ROAD,MADISON,Wisconsin,USA,53718,"Construction supplies, nothing on website"
50009487,"ADVANCED GEODETIC SURVEYS, INC (CH/",23111 FM 1462,DAMON,Texas,USA,77430,"Yes, they have Topcon https://agsgps.com/?utm_term=%2Badvanced%20%2Bgeodetic%20%2Bsurveys&utm_campaign=**LP+Branded&utm_source=bing&utm_medium=ppc&hsa_acc=6065906361&hsa_cam=970402543&hsa_grp=1265538017600181&hsa_ad=&hsa_src=o&hsa_tgt=kwd-79096208323896:loc-4128&hsa_kw=%2Badvanced%20%2Bgeodetic%20%2Bsurveys&hsa_mt=p&hsa_net=adwords&hsa_ver=3&msclkid=a51383903490150e3674e106a3408191&utm_content=Advanced%20Geodetic%20Surveys"
50003545,ADVANTAGE CONSTRUCTION SUPPLY (CH),SUITE 100 8500 YOUNGER CREEK DRIVE,SACRAMENTO,California,USA,95828,Cant find website
50001699,ADVANTAGE FARM EQUIPMENT,392 BROADWAY ST,WYOMING,Ontario,Canada,N0N 1T0,"Yes, they have Topcon https://advantage-equip.com/equipment/precision/"
50008590,AG AUTHORITY (AG),PO BOX 100,KINISTINO,Saskatchewan,Canada,S0J 1H0,"Yes, they have Topcon https://agauthority.ca/Topcon"
50008236,AG CENTRAL CO-OP (AG),920 CONGRESS PKWY,ATHENS,Tennessee,USA,37303,"Agriculture supply service, nothing on website"
50008332,AG ENTERPRISE SUPPLY INC (AG),17005 W STATE ROUTE 904,CHENEY,Washington,USA,99004,"Yes, they have Topcon"
50007693,AG EXPRESS (AG),6280 NE 14TH ST,DES MOINES,Iowa,USA,50313,"Yes, they have Topcon"
50009722,AG INDUSTRIAL MANUFACTURING INC. (A,PO BOX 53,LODI,California,USA,95241,
50001820,AG INFO TECH LLC,19325 ZOLMAN RD,FREDERICKTOWN,Ohio,USA,43019,
50007675,AG LEADER TECHNOLOGY-AMES (AG),2202 SOUTH RIVERSIDE DRIVE,AMES,Iowa,USA,50010,
50008248,AG NATION PRODUCTS,PO BOX 30127,EAST CANTON,Ohio,USA,44730,
50008302,AG SOLUTIONS GROUP (AG),PO BOX 219,MARSHALL,Missouri,USA,65340,
50008379,AG TECHNOLOGIES INC (AG),1268 E 100 S,ROCHESTER,Indiana,USA,46975,
50007981,AG TECHNOLOGY GROUP (AG),13314 STARKEY FARM LANE,GALENA,Maryland,USA,21635,
50009649,AG TO GO (AG),370 SUMIT POINT DR,HENRIETTA,New York,USA,14467,
50008470,AG WORLD EQUIPMENT (AG),PO BOX 340,KINISTINO,Saskatchewan,Canada,S0J 1H0,
50008153,AGB CONSULTING (AG),112 PRAIRIE MANOR,EDWARDSVILLE,Illinois,USA,62025,cant find website
50001389,AGCO  do BRASIL SOLUCOES AGRICOLAS,10260 Guilherme Schell Avenue,CANOAS,Rio Grande do Sul,Brazil,92420-532,
50005212,AGCO  do BRASIL SOLUCOES AGRICOLAS,"R. CAPITAO F. DE ALMEIDA,695 BRAS C",MOGI DAS CRUZES,Sao Paulo,Brazil,08740-300,
50005901,AGCO  do BRASIL SOLUCOES AGRICOLAS,AVE. JOSE ALVES DE OLIVEIRA NO. 300,"DISTRITO INDUSTRIAL, JUNDIAI",Sao Paulo,Brazil,13213-105,
50007499,AGCO ARGENTINA - GENERAL RODRIGUEZ,RUTA 24 KM 18,GENERAL RODRIGUEZ,Buenos Aires,Argentina,1748,
50001545,AGCO ARGENTINA S.A.,"VALENTIN GOMEZ 577, CP 1706-HAEDO",BUENOS AIRES,Buenos Aires,Argentina,1706,
50001511,AGCO AUSTRALIA LIMITED (Hardware),615 SOMERVILLE ROAD,SUNSHINE WEST,Victoria,Australia,3020,
50001441,AGCO BEAUVAIS.,"41, AVENUE BLAISE, PASCAL, B.P. 603",BEAUVAIS CEDEX,Oise,France,60026,
50001227,AGCO CORPORATION,202 INDUSTRIAL PARK,JACKSON,Minnesota,USA,56143,
50003365,AGCO CORPORATION,PO BOX 566,BELOIT,Kansas,USA,67420,
50001331,AGCO CORPORATION -KS,420 W. LINCOLN BLVD.,HESSTON,Kansas,USA,67062,"Agricultural equipment sales, nothing on website"
50005921,AGCO DO BRASIL SOLUCOES AGRICOLAS,"AVENIDA DOS BANDEIRANTES, 384",RIBEIRAO PRETO,Sao Paulo,Brazil,14030-680,
50006246,AGCO do BRASIL SOLUCOES AGRICOLAS L,"ROD. RS 344 S/N, KM 01",SANTA ROSA,Rio Grande do Sul,Brazil,98900-000,
50001484,AGCO INTERNATIONAL GMBH,JOHANN-GEORG-FENDT-STR. 4,MARKTOBERDORF,Bavaria,Germany,87616,
50003121,AGCO INTERNATIONAL GMBH,ABBEY PARK STONELEIGH,KENILWORTH,GB/Not assigned,United Kingdom,CV8 2TQ,
50004510,AGCO INTERNATIONAL GmbH,VICTOR VON BRUNS-STRASSE 17,NEUHAUSEN AM RHEINFALL,Schaffhausen,Switzerland,8212,
50002941,AGCO INTERNATIONAL GMBH (FRANCE),ZAC DE LA FONTAINE DES SAINTS CUSTO,ENNERY,FR/Not assigned,France,57365,
50004450,AGCO ITALIA SPA,"VIA DELL'INDUSTRIA, 63",BREGANZE,Vicenza,Italy,36042,
50001688,AGCO PARTS DIVISION,1500 N RADDANT ROAD,BATAVIA,Illinois,USA,60510,
50001613,AGCO S.P.A.,SEDE BREGANZE VIAS F. LAVERDA 15/17,BREGANZE,Vicenza,Italy,36042,
50008455,AGLAND (AG),PO BOX 10039,LLOYDMINSTER,Alberta,Canada,T9V 3A2,"Agricultural equipment (John Deere, Brandt, Bobcat, etc), nothing on website"
50007967,AG-POWER INC (AG),"1512 BRAY CENTRAL DRIVE, SUITE 100",MCKINNEY,Texas,USA,75071,
50008231,AGPRO MARKETING & MANUFACTURING INC,1112 AIRWAY AVE,LEWISTON,Idaho,USA,83501,
50001924,AGRI NORTHWEST,PO BOX 2308,TRI CITIES,Washington,USA,99302,
50008921,AGRICEF SOLUCOES TECNOLOGICAS,"AV DR ROBERTO MOREIRA, 4500, LOTEAM",PAULINIA,Sao Paulo,Brazil,13148-150,
50001606,AGRICULTURA CIENTIFICA S.A.,OFICENTRO PALACIO NO. 9,SAN JOSE,CR/Not assigned,Costa Rica,10107,
50001641,AGRI-SERVICE (AG),300 AGRI-SERVICE WAY,KIMBERLY,Idaho,USA,83341,
50007157,AGRITERRA EQUIPMENT - CAMROSE,4716-38 STREET,CAMROSE,Alberta,Canada,T4V 3T5,
50005163,AGRITERRA EQUIPMENT (AG),BOX 3099,STONY PLAIN,Alberta,Canada,T7Z 1Z1,
50007672,AGRI-TRONIX (AG),2001 NORTH MORTON STREET,FRANKLIN,Indiana,USA,46131,
50007881,AGRIVISION (AG),58668 190TH STREET,PACIFIC JUNCTION,Iowa,USA,51561,"Agricultural equipment (John Deere), nothing on website"
50007940,AGROSURE,"R MARISA, 403",RIBEIRAO PRETO,Sao Paulo,Brazil,14091-150,
50003242,AGSERV CONSULTING,38725 U.S. HWY 75 NW,STEPHEN,Minnesota,USA,56757,
50001145,AGWORLD EQUIPMENT,"100 SERVICE STREET,P.O. BOX 340",KINISTINO,Saskatchewan,Canada,S0J 1H0,
50008347,AHW LLC (AG),27668 E 3200 N ROAD,DWIGHT,Illinois,USA,60420,
50006501,AIS CONSTRUCTION EQUIPMENT CORPORAT,600 AIS DRIVE SW,GRAND RAPIDS,Michigan,USA,49548,
50008226,AITEC SA (AG),ELIODORO YANEZ N 1812,PROVIDENCIA,RM - Santiago,Chile,#,
50003227,AKRON SERVICES,17705 N. ELEVATOR ROAD,EDELSTEIN,Illinois,USA,61526,
50009582,AKRS EQUIPMENT SOLUTIONS INC.,150 NW 40TH STREET,LINCOLN,Nebraska,USA,68528,
50005725,ALAMO VALLEY GEOSYSTEMS (CH/ SK),PO BOX 460857,SAN ANTONIO,Texas,USA,78246,
50000200,ALERT-O-LITE - FRESNO (SK),PO BOX 12224,FRESNO,California,USA,93777,"Construction supplies, nothing on website"
50009339,ALEXSON (CH),3 ORMOND ST.,LINWOOD,Pennsylvania,USA,19061,
50001788,ALL AMERICAN COOP (SGIS),113  4TH STREET SE,STEWARTVILLE,Minnesota,USA,55976,
50004631,ALL SERVICE (CH),770 RT 23,POMPTON PLAINS,New Jersey,USA,7444,
50005145,ALLEN INSTRUMENTS AND SUPPLIES (CH),7114 EAST EARLL DRIVE,SCOTTSDALE,Arizona,USA,85251,
50001769,"ALLIANCE APPLICATION EQUIPMENT, LLC",1115 HWY 51 NORTH,TROY,Tennessee,USA,38260,
50008288,ALLTERRA CENTRAL (CH),14722 REGNAL STREET,HOUSTON,Texas,USA,77039,
50009588,ALMACO (AG),99 M AVE,NEVEDA,Iowa,USA,50201,
50007944,ALMARAI COMPANY LIMITED (AG),PO BOX 8524,RIYADH,SA/Not assigned,Saudi Arabia,11492,
50000033,ALMART ENTERPRISES INC (SK),1383 FREY ROAD,PITTSBURGH,Pennsylvania,USA,15235,
50009845,ALPINE NAVIGATION LLC (CH),3070 I-70 BUS UNIT B-1,GRAND JUNCTION,Colorado,USA,81504,"Yes, they have Topcon"
50001342,ALTORFER (AG),9670 TABOR ROAD,CLINTON,Illinois,USA,61727,
50001718,ALTRA RENTAL AND SUPPLY INC. (CH),PO BOX 427,ONTARIO,New York,USA,14519-0427,
50007668,AMELICOR (AG),1525 WEST 820 NORTH,PROVO,Utah,USA,84601,
50004908,AMERICAN CONSTRUCTION SUPPLY&RENTAL,PO BOX 1160,NAMPA,Idaho,USA,83653,
50008193,AMERICAN IMPLEMENT (AG),2302 E. MARY STREET,GARDEN CITY,Kansas,USA,67846,
50003539,AMITY TECHNOLOGY LLC,2800 7TH AVE N,FARGO,North Dakota,USA,58102,
50004214,AMMANN CZECH REPUBLIC a.s.,NACHODSKA 145,NOVE MESTO METUJI,CZ/Not assigned,Czech Republic,549 01,
50009111,ANALYSIS & SOLUTIONS CONSULTANTS,"3767 OVERLAND AVE, STE. 115",LOS ANGELES,California,USA,90034,
50000388,ANALYTICAL SERVICES CO (SK),10 DEAN KNAUSS DRIVE,NARRAGANSETT,Rhode Island,USA,2882,
50000905,ANDERSON MACHINERY COMPANY,P.O. BOX 4806,CORPUS CHRISTI,Texas,USA,78469,"Construction equipment dealership, nothing on website"
50009371,AP MANUFACTURING INC.,990 E. SOUTH LOOP,STEPHENVILLE,Texas,USA,76401,
50008367,APPLE FARM SERVICE INC (AG),10120 WEST VERSAILLES ROAD,COVINGTON,Ohio,USA,45318,
50006041,APPLIED INDUSTRIAL TECH,"143 WHEELER STREET, PO BOX 8849",SASKATOON,Saskatchewan,Canada,S7P 0A4,
50010014,APPLIED INDUSTRIAL TECHNOLOGIES LP,PO BOX 93018,CLEVELAND,US/Not assigned,USA,44101-5018,
50000089,"ARC- ATLANTA, GA (SK)",640 TENTH STREET NW,ATLANTA,Georgia,USA,30318,
50009747,ARCO CONTRACTORS SUPPLY CO (CH),2305 LUDELLE ST,FORT WORTH,Texas,USA,76105,
50008507,ARNOLDS OF ALDEN (AG),110 NORTH STAR RD,ALDEN,Minnesota,USA,56009,
50008150,ARNOLDS OF MANKATO (AG),1715 HOWARD DRIVE,MANKATO,Minnesota,USA,56003,
50008151,ARNOLDS OF WILLMAR (AG),4773 HWY 71 S,WILLMAR,Minnesota,USA,56201,
50000936,ARPLAN GEOTEK,APARTADO POSTAL 30333 TONCONTIN,"TONCONTIN, TEGUCIGALPA",HN/Not assigned,Honduras,30333,
50003478,"ARROW CONSTRUCTION SUPPLY, INC (CH)",PO BOX 11133,SPOKANE,Washington,USA,99211-1133,
50000710,ART-DRAFT AUTHORITY INC.,399 ANDALUCIA AVE,PUERTO NUEVO,Puerto Rico,USA,00920-4105,
50007747,ARTEX MANUFACTURING (AG),PO BOX 88,REDWOOD FALLS,Minnesota,USA,56283-0319,
50007924,ARTS-WAY MANUFACTURING (AG),PO BOX 288,ARMSTRONG,Iowa,USA,50514,
50008753,ASTRA VEICOLI IND SPA -CNH ITALY,"Via Caorsana, 79",PIACENZA,IT/Not assigned,Italy,29122,
50000218,"ASTRO WOOD STAKE, INC (CH)",6017 CHICAGO DRIVE,ZEELAND,Michigan,USA,49464,
50007474,ATI CORPORATION,250 EARLAND DRIVE,NEW HOLLAND,Pennsylvania,USA,17557,
50001852,ATKINSON GRAIN & FERTILIZER (SGIS),100 EAST CAHN,HOOPPOLE,Illinois,USA,61258,
50001285,ATLANTA TRADING COMPANY,1925 SHILOH RD. BLDG 3  SUITE 400,KENNESAW,Georgia,USA,30144,
50009744,ATLANTIC HARDWARE SUPPLY (CH),70 INDUSTRIAL PARK DRIVE UNIT 3C,WALDORF,Maryland,USA,20602,
50008514,ATLANTIC TRACTOR LLC (AG),31415 JOHN DEERE DRIVE,SALISBURY,Maryland,USA,21804,
50007682,ATLAS SCALE CO (AG),365 HERITAGE DR,KITCHENER,Ontario,Canada,N2B 3K9,
50008087,AUSLOGIC SYSTEMS PTY LTD (AG),PO BOX 661,TOOWOOMBA,Queensland,Australia,4350,
50003003,AUSTIN PRECISION,PO BOX 1037,CAMINO,California,USA,95709,
50009812,"AUTMOW, LLC",41 ISRAEL STREE,WESTERVILLE,Ohio,USA,43081,
50009097,AUTONOMOUS SOLUTIONS INC,990 NORTH 8000 WEST,PETERSBORO,Utah,USA,84325,
50005715,AUTOSPLICE INDUSTRIA E COMERCIO LTD,"RUA PIERRE LAFAGE, 219",SAO PAULO,Sao Paulo,Brazil,05163-060,
50000829,B.L. MAKEPEACE,575 UNIVERSITY AVENUE SUITE D,NORWOOD,Massachusetts,USA,2062,
50007953,"BACON- UNIVERSAL CO., INC.",918 AHUA STREET,HONOLULU,Hawaii,USA,96819,
50008114,BALZER INC (AG),COUNTY RD 27 BOX 458,MOUNTAIN LAKE,Minnesota,USA,56159,
50001750,BARNSCO INC. (CH),PO BOX 541087,DALLAS,Texas,USA,75354,
50007700,BASCULAS DEL NOROESTE (AG),"CALIFORNIA 1424-C SUR, COLONIA SOCH",OBREGON,Sonora,Mexico,85150,
50003472,BASE ASSESSORIA AGRONOMICA LTDA,AV. OSVALDO ZAMBONATO 623,SILVEIRA MARTINS,Rio Grande do Sul,Brazil,97195-000,
50000332,BASELINE EQUIPMENT CO. (SK),PO BOX 22806,EUGENE,Oregon,USA,97402,
50000699,BASSLER EQUIPMENT (CH),1300 WYOMING AVENUE,FORTY FORT,Pennsylvania,USA,18704,
50007966,BATTLE RIVER IMPLEMENTS (AG),4717 38TH ST,CAMROSE,Alberta,Canada,T4V 3W9,
50001594,BAY EQUIPMENT COMPANY (CH),12093 WATERMAN DRIVE,NEWPORT NEWS,Virginia,USA,23602,
50000180,BAY VERTE MACHINERY INC. (SK),975 PARKVIEW ROAD,GREEN BAY,Wisconsin,USA,54304,
50001926,BAYSHORE SURV INSTR  DEER PARK (SK),2822 KINGSDALE DRIVE,DEER PARK,Texas,USA,77536,
50004561,BAYSHORE SURVEYING INST CO INC (CH/,2822 KINGSDALE DRIVE,DEER PARK,Texas,USA,77536,
50001172,BB EQUIPOS TOPOGRAFICOS,CRA 19B NO.83-63 OFICINA 401,BOGOTA D.C. CUNDINAMARCA,BOGOTA,Colombia,#,
50008008,BCA AG TECHNOLOGIES (AG),5451 BURNS RD,MEDINA,New York,USA,14103,
50000093,BEELINE + BLUE (sb),2507 INGERSOLL AVENUE,DES MOINES,Iowa,USA,50312,
50001933,BELLKATO INC (SK),PO BOX 997,MANKATO,Minnesota,USA,56002-0997,
50001960,BELTSVILLE CONSTRUCTION SUPPLY (CH),11525 EDMONTON ROAD,BELTSVILLE,Maryland,USA,20705,
50000295,BENCHMARK AZ (SK),4561 E WALATOWA,PHOENIX,Arizona,USA,85044,
50004986,BENCHMARK PRECISION INSTRUMENTS INC,8413 HALL ROAD,UTICA,Michigan,USA,48317,
50001174,"BENCHMARK TOOL & SUPPLY, INC.",2720 DISCOVERY DRIVE,RALEIGH,North Carolina,USA,27616,
50008222,BERGMAN FARM SUPPLY,"1304 BUCHANAN ST, ROUTE 136",CARTHAGE,Illinois,USA,62321,
50001780,"BINKLEY AND HURST, LP (AG)",PO BOX 395,LITITZ,Pennsylvania,USA,17543,
50001824,BIRD ISLAND SOIL SERVICE,511 OAK AVENUE,BIRD ISLAND,Minnesota,USA,55310,
50008125,BIRKEYS FARM STORE (AG),664 US HIGHWAY 150 EAST,GALESBURG,Illinois,USA,61401,
50003276,"BITUMINOUS ROADWAYS, INC.",1520 COMMERCE DRIVE,MENDOTA HEIGHTS,Minnesota,USA,55120,
50007671,BLASTCRETE EQUIPMENT COMPANY (AG),2000 COBB AVE,ANNISTON,Alabama,USA,36201-3050,
50007692,BLUE MOUNTAIN AGRISUPPORT INC (AG),620 THAIN ROAD,LEWISTON,Idaho,USA,83501,
50001950,BLUEPRINT SERVICE CO (SK),1100 18TH STREET,BAKERSFIELD,California,USA,93301,
50003547,BLUEPRINT SERVICES INC (CH),41-D INDUSTRIAL PARK DC,WALDORF,Maryland,USA,20602,
50005729,BOART LONGYEAR MANUFACTURING AND,2455 SOUTH 3600 WEST,SALT LAKE CITY,Utah,USA,84119,
50007903,BODENSTEINER IMPLEMENTS (AG),PO BOX 299,CLERMONT,Iowa,USA,52135,
50004872,BOMAG AMERICAS INC,125 BLUE GRANITE PARKWAY,RIDGEWAY,South Carolina,USA,29130,
50004308,BON TOOL CO (CH),4430 GIBSONIA ROAD,GIBSONIA,Pennsylvania,USA,15044,
50000612,BONNEVILLE BLUEPRINT SUPPLY,1802 CURTIS AVENUE,IDAHO FALLS,Idaho,USA,83402,
50008385,BORDER PLAINS EQUIPMENT,5109 FRONT STREET WEST,WILLISTON,North Dakota,USA,58801,
50001147,BOURGAULT INDUSTRIES LTD,BOX 39,ST. BRIEUX,Saskatchewan,Canada,S0K 3V0,
50009805,BOYD AND SONS MACHINERY LLC (AG),16 SOUTH 350 EAST,WASHINGTON,Indiana,USA,47051,
50000717,BOYD INSTRUMENT & SUPPLY CO.,443 B EASTON ROAD,HORSHAM,Pennsylvania,USA,19044,
50001525,BRAD INC. (CH),486 W. WRIGHTWOOD AVE,ELMHURST,Illinois,USA,60126,
50000793,BRANCO,1205 N. MCQUEEN ROAD,GILBERT,Arizona,USA,85233,
50008979,BRANDT INDUSTRIES USA LTD.,19500 N. 1425 E. ROAD,HUDSON,Illinois,USA,61748-7630,
50001558,BRANDT TRACTOR LTD - REGINA,"PO BOX 3856, HIGHWAY #1 EAST",REGINA,Saskatchewan,Canada,S4P 3R8,
50004512,"BROCK WHITE COMPANY, LLC (CH)",2575 KASOTA AVENUE,ST. PAUL,Minnesota,USA,55108,
50008536,BRODIE AG & INDUSTRIAL INC (AG),985285 PERTH-OXFORD RD,TRAVISTOCK,Ontario,Canada,N0B 2R0,
50006273,BROOKS TRACTOR INC.,PO BOX 9,SUN PRAIRIE,Wisconsin,USA,53590,
50009411,BROWN CO MFG & SALES (CH),12039 E. PINE ST,TULSA,Oklahoma,USA,74116,
50007880,BROWN COUNTY RENTAL (CH),8108 US 52 WEST,ABERDEEN,Ohio,USA,45101,
50001883,BROWN MILLING INC.,8731 E. ROSEBUSH ROAD,MOUNT PLEASANT,Michigan,USA,48858,
50008539,BRUNA IMPLEMENT CO,63409 714 RD,HUMBOLDT,Nebraska,USA,68376,
50007932,BRUNA IMPLEMENT CO (AG),201 E MIAMI ST,HIAWATHA,Kansas,USA,66434,
50008060,BRUNA IMPLEMENT CO (AG),1128 PONY EXPRESS HIGHWAY,MARYSVILLE,Kansas,USA,66508,
50008244,BRUNA IMPLEMENT CO (AG),12 E NORTH STREET,SENECA,Kansas,USA,66538,
50007849,BRUTALE MAQUINAS E EQUIPAMENTOS (AG,"AV GREGORIO AVERSA, 830",SAO CARLOS,Sao Paulo,Brazil,13571-260,
50008052,BTI EQUIPMENT (AG),PO BOX 127,BUCKLIN,Kansas,USA,67834,
50004619,BUHLER VERSATILE INC,1260 CLARENCE AVENUE,WINNIPEG,Manitoba,Canada,R3T 1T2,
50006651,BUILDERS BEST DO IT CENTER (CH),3798 LUKE ROAD,CORTLAND,New York,USA,13045,
50005010,BULLET RENTAL & SALES INC (CH),"5900 S, 6TH STREET SUITE B",KLAMATH FALLS,Oregon,USA,97603,
50003217,BULLFROG ENTERPRISES (CH),1581 SOUTH A STREET,SPRINGFIELD,Oregon,USA,97477,
50000928,BUTLER LASER,300 CEDARCREST DRIVE,LEXINGTON,South Carolina,USA,29072,
50007822,BUTLER MACHINERY (AG),PO BOX 9559,FARGO,North Dakota,USA,58106,
50001966,C & B BLUEPRINT CO (SK),824 6TH STREET,HUNTINGTON,West Virginia,USA,25701,
50005935,C & B MFG. INC (AG),P.O. BOX 179,JACKSON,Minnesota,USA,56143,
50008282,C & B OPERATIONS (AG),30965 US HWY 212,GETTYSBURG,South Dakota,USA,57442,
50005167,C & R SUPPLY (AG),3610 N. CLIFF AVENUE,SIOUX FALLS,South Dakota,USA,57104,
50008333,C&E ENTERPRISES (AG),PO BOX 1204,MILES CITY,Montana,USA,59301,
50000748,"C.A.S.CO., INC. (CH)",15207 AIRLINE HWY,BATON ROUGE,Louisiana,USA,70817,
50004165,C.L. BENNINGER EQUIPMENT LTD (AG),PO BOX 596,CHATHAM,Ontario,Canada,N7M 5K6,
50004926,CAL LOADER CONTRACTORS,2010 WEST AVENUE K #808,LANCASTER,California,USA,93536,
50009246,CALIBRACIONES SRL (AG),LUIS BATLLE BERRES 1332,PAYSANDU,UY/Not assigned,Uruguay,50000,
50001978,CALIFORNIA SURVEYING & DRAFTING (CH,4733 AUBURN BLVD,SACRAMENTO,California,USA,95841-3601,
50005814,CAOUETTE AND SONS IMPLEMENT LTD (AG,5406 - 46 Street,ST. PAUL,Alberta,Canada,T0A 3A0,
50004545,CAPITAL SURVEYING SUPPLIES (CH/SK),1400 W SAM HOUSTON PKWY N SUITE 200,HOUSTON,Texas,USA,77043,
50007684,CAPPEL SALES INC (AG),38083 ROAD 717,MCCOOK,Nebraska,USA,69001,
50008380,CARGILL ANIMAL NUTRITION (AG),149 JONERGIN DRIVE,SWANTON,Vermont,USA,5488,
50003496,CARLSON PAVING PRODUCTS,18425 50TH AVE E,TACOMA,Washington,USA,98446,
50000278,CAROLINA LASERS (CH),5508 OLD WAKE FOREST ROAD,RALEIGH,North Carolina,USA,27609,
50000569,CARON EAST,PO BOX 1378,CUMBERLAND,Maryland,USA,21501-1378,
50007870,CARRICO IMPLEMENTS INC (AG),3160 US-24 HWY,BELOIT,Kansas,USA,67420,
50007176,CARROLL CONSTRUCTION SUPPLY,1502 E. MAIN STREET,OTTUMWA,Iowa,USA,52501,
50000227,CARTER-WATERS CORPORATION (CH),PO BOX 412676,KANSAS CITY,Missouri,USA,64141,
50000838,CASA DE INGENIERIA Y PAPELERA,"PASAJE VALLARTA 1169, CENTRO CIVICO","MEXICALI, BAJA CALIF",Baja California,Mexico,21000,
50000837,CASA DEL AGRIMENSOR,AV 27 DE FEBRERO NO 204,SANTO DOMINGO,DO/Not assigned,Dominican Rep.,10107,
50007844,CASALE EQUIPAMENTOS LTDA (AG),"ROD WASHINGTON LUIZ, SN KM237",SAO CARLOS,Sao Paulo,Brazil,13560-970,
50006519,CASALE RENT-ALL (CH),1641 ROUTE 9,CLIFTON PARK,New York,USA,12065,
50008706,CASE NEW HOLLAND CE (I) PVT LTD,"PLOT NO. 157, INDUSTRIAL AREA III",PITHAMPUR,IN/Not assigned,India,454774,
50007750,CASTON COMERCIO E IMPORTACAO LTDA (,"RUA AQUIDABAN, 1143",SAO CARLOS,Sao Paulo,Brazil,13560-120,
50009297,CATTLE TECH INC. (AG),BOX 119,IRON SPRINGS,Alberta,Canada,T0K 1G0,
50007854,CATTLELAC CATTLE HANDLING SYSTEMS (,113 POPLAR RIDGE RD,RED DEER COUNTY,Alberta,Canada,T4S 0K6,
50007862,CATTLEXPERT MANAGEMENT SOFTWARE LLC,"20507 NICHOLAS CIRCLE, SUITE 100",ELKHORN,Nebraska,USA,68022,
50003271,CB ARGONOMICS (SGIS),61472 270TH STREET,GIBBON,Minnesota,USA,55335,
50003411,CCS CONTRACTOR EQUIPMENT & SUPPLY (,1567 FRONTENAC ROAD,NAPERVILLE,Illinois,USA,60563,
50007183,CEC EQUIPMENTS,2389 GUENETTE,ST-LAURENT,Quebec,Canada,H4R 2E9,
50003100,CEDAR CHEMICAL (SGIS),1803 450TH STREET,LARRABEE,Iowa,USA,51029,
50007913,CEDAR CREST EQUIPMENT CO. (AG),61 ELCO DRIVE,MYERSTOWN,Pennsylvania,USA,17067,
50009503,"CEDAR EQUIPMENT RENTAL, LLC (CH)",610 5600 N,ENOCH,Utah,USA,84721,
50005168,CEMSTONE PRODUCTS COMPANY (CH),"2025 CENTRE POINTE BLVD, SUITE 300",MENDOTA HEIGHTS,Minnesota,USA,55120,
50001821,CENTRA SOTA COOPERATIVE (SGIS),"190 JACKSON AVENUE S, PO BOX 238",COKATO,Minnesota,USA,55321,
50007719,CENTRAL CITY SCALE INC (AG),PO BOX 197,CENTRAL CITY,Nebraska,USA,68826-0197,
50008653,CENTRAL MACHINERY SALES INC. (AG),PO BOX 1217,MOSES LAKE,Washington,USA,98837,
50001919,CENTRAL OHIO FARMERS COOP (SGIS),1477 ST. RT 294,MARION,Ohio,USA,43302,
50007731,CENTRAL VALLEY AG (AG),PO BOX 429,YORK,Nebraska,USA,68467,
50005584,"CERTIFIED POWER, INC",970 CAMPUS DRIVE,MUNDELEIN,Illinois,USA,60060,
50007823,CERVUS EQUIPMENT CORP (AG),"333-96 AVE NE, SUITE 6302",CALGARY,Alberta,Canada,T3K 0S3,
50004268,CGS MULE LLC (sb),1490 LINDA WAY,SPARKS,Nevada,USA,89431,
50007438,CHADWICK-BAROSS INC (CH),33 PLAN WAY BUILDING 8,WARWICK,Rhode Island,USA,2886,
50007935,CHAMPION INDUSTRIAL EQUIPMENT (AG),"2855 MARLEAU AVE, SUITE A",CORNWALL,Ontario,Canada,K6H 7B6,
50003249,CHANDLER COOP,151 5TH STREET,CHANDLER,Minnesota,USA,56122,
50001755,CHARLES FEQUIERE S.A.,"RUE DUMEZ#4, AVE. MAIS-GATE",PORT-AU-PRINCE,HT/Not assigned,Haiti,0,
50008390,CHARLES PRESTON CONSULTING INC. (AG,9 STORMONT AVENUE,KINGSTON,Ontario,Canada,K7M 1N9,
50000728,CHARLESTON BLUEPRINT INC,1203 VIRGINIA STREET EAST,CHARLESTON,West Virginia,USA,25301,
50001679,CHIEF SUPPLY,2121-E DISTRIBUTION CENTER DRIVE,CHARLOTTE,North Carolina,USA,28269,
50007720,CHORE-TIME (AG),PO BOX 2000,MILFORD,Indiana,USA,46542-2000,
50001806,"CHS, GRAND MEADOW (SGIS)","208 1ST AVE SE, BOX 386",GRAND MEADOW,Minnesota,USA,55936,
50000594,CINCINNATI PRECISION,253 CIRCLE FREEWAY DR.,CINCINNATI,Ohio,USA,45246,
50003101,CIRCLEVILLE AG PRODUCTS,347 E. CORWIN STREET,CIRCLEVILLE,Ohio,USA,43113,
50000041,CITY BLUE PRINT INC  WICHITA (CH),PO BOX 544,WICHITA,Kansas,USA,67201,
50000043,CITY BLUEPRINT OF TOLEDO (CH),3637 BRIARFIELD BLVD.,MAUMEE,Ohio,USA,43537,
50001887,CITY OF CALGARY,P.O. BOX 2100 STATION M,CALGARY,Alberta,Canada,T2P 2M5,
50007099,CKS SERVICES,200 E. BROAD STREET,BETHLEHEM,Pennsylvania,USA,18018,
50001974,CLAYTON DIGITAL REPROGRAPHICS INC(C,PO BOX 14119,SAVANNAH,Georgia,USA,31416,
10A70001,"CLEAREDGE 3D, INC.","1000 S MCCASLIN BLVD, STE 303",SUPERIOR,Colorado,USA,80027,
50000712,"CLEARY MACHINERY CO., INC",24 CEDAR STREET,SOUTH BOUND BROOK,New Jersey,USA,8880,
50007723,CLIFFS INC (AG),PO BOX 248,FRIESLAND,Wisconsin,USA,53935,
50007706,CLOVERDALE EQUIPMENT LLC (AG),N13835 COUNTY RD E,CURTISS,Wisconsin,USA,54422,
50004112,CNH AMERICA LLC,PO BOX 3500,LANCASTER,Pennsylvania,USA,17604,
50004153,CNH AMERICA LLC,PO BOX 3500,LANCASTER,Pennsylvania,USA,17604-3500,
50004412,CNH AMERICA LLC,700 STATE STREET,RACINE,Wisconsin,USA,53404,
50003063,CNH AMERICA LLC.,PO BOX 71277,PHILADELPHIA,Pennsylvania,USA,19176-6277,
50004246,CNH FRANCE SAS,"16-18, RUE DES ROCHETTES",MORIGNY-CHAMPIGNY,FR/Not assigned,France,91150,
50004791,CNH INDUSTRIAL,AV JOSE GARATE 11,COSLADA,ES/Not assigned,Spain,28823,
50004905,CNH INDUSTRIAL ARGENTINA S.A,"ROQUE SAENZ PENA 615 PISO 11, CABA,",CABA,Buenos Aires,Argentina,1035,
50008754,CNH INDUSTRIAL ARGENTINA S.A.,2829 EDIFICIO 01 PISO 4 2829,CORONEL INTENDENTE AMARO AVALOS,Buenos Aires,Argentina,1605,
50005536,CNH INDUSTRIAL AUSTRALIA PTY LIMITE,31-53 KURRAJONG ROAD,ST MARYS,New South Wales,Australia,2760,
50004218,CNH INDUSTRIAL BELGIUM,LEON CLAEYSTRAAT 3A,ZEDELGEM,Brussels (Capital),Belgium,8210,
50004332,CNH INDUSTRIAL BRASIL LTDA,AV JEROME CASE 1801-PORT 3 EDEN,SOROCABA,Sao Paulo,Brazil,18087-220,
50007726,CNH INDUSTRIAL CANADA LTD (AG),PO BOX 71501,PHILADELPHIA,Pennsylvania,USA,19176-1501,
50004792,CNH INDUSTRIAL DENMARK A/S,ROHOLMSVEJ 19,ALBERTSLUND,DK/Not assigned,Denmark,2650,
50004234,CNH INDUSTRIAL DEUTSCHLAND GMBH,HEINRICH-FUCHS-STRABE 124,HEIDELBERG,DE/Not assigned,Germany,69126,
50004242,CNH INDUSTRIAL DEUTSCHLAND GMBH,BENZSTRASSE 1,HEILBRONN,Baden-Wurttemberg,Germany,74076,
50003574,CNH INDUSTRIAL ITALIA SPA,VIA PLAVA 80,TORINO,IT/Not assigned,Italy,10135,
50009964,CNH INDUSTRIAL ITALIA SPA - FACTORY,VIA PLAVA 80,TORINO,IT/Not assigned,Italy,10135,
50004231,CNH INDUSTRIAL N.V.,CRANES FARM ROAD,BASILDON,Essex,United Kingdom,SS143AD,
50004832,CNH INDUSTRIAL POLSKA SP. Z OO,UL. OTOLINSKA 25,PLOCK,PL/Not assigned,Poland,09-407,
50003579,CNH INDUSTRIAL S.P.A.,VIA PLAVA 80,TORINO,Turin,Italy,10135,
50004110,CNH INDUSTSRIAL LATIN AMERICA LTDA,AV GAL DAVID SARNOFF 2237,CONTAGEM,Minas Gerais,Brazil,32210-900,
50009489,CNHI INTERNATIONAL SA,RIVA PARADISO 14,PARADISO CH-6900,CH/Not assigned,Switzerland,6900,
50000766,COASTAL LASERS INC.,1406-1 CASTLE HAYNE ROAD,WILMINGTON,North Carolina,USA,28401,
50006885,COASTLINE EQUIPMENT,6242 PARAMOUNT BLVD,LONG BEACH,California,USA,90805,
50005202,CODA OCTOPUS PRODUCTS,3300 S HIAWASEE ROAD #104-105,ORLANDO,Florida,USA,32835,
50006071,COLONY HARDWARE CORPORATION (CH),269 SOUTH LAMBERT ROAD,ORANGE,Connecticut,USA,6477,
50000729,COMPLETE REPROGRAPHICS (CH/SURVEY),6122 TROWBRIDGE DRIVE,EL PASO,Texas,USA,79905,
50007987,CONCORDIA TRACTOR INC (AG),PO BOX 247,CONCORDIA,Kansas,USA,66901,
50006064,CONCRETE ACCESSORIES & RENTALS INC,398 GRAVES TRAIL,BOZEMAN,Montana,USA,59718,
50005861,CONCRETE CONSTRUCTION SUPPLY (CH),1849 E. COMMERCIAL STREET,MERIDIAN,Idaho,USA,83642,
50003313,CONCRETE CUTTING AND CORING (CH),12690 CREEK VIEW AVE,SAVAGE,Minnesota,USA,55378,
50001664,CONCRETE SOLUTIONS (CH),199 EAST BROADWAY,GARDNER,Massachusetts,USA,1440,
50010010,"CONCRETE WORKS, LLC (CH)",64 MILL PLAIN ROAD,DANBURY,Connecticut,USA,6811,
50008218,CON-DOR ENTERPRISES LTD,PO BOX 336,TOPANGA,California,USA,90290,
50001733,"CONEWAGO ENTERPRISES, INC",660 EDGEGROVE ROAD,HANOVER,Pennsylvania,USA,17331,
50007802,CONLEY'S PRECISION AG & SERVICES,16451 W PEET RD,OAKLEY,Michigan,USA,48649,
50005455,CONNECT EQUIPMENT CORP,736 SIDEROAD 5,CHEPSTOW,Ontario,Canada,N0G 1K0,
50009931,CONNECTIVE SYSTEMS AND SUPPLY (CH),5718 WRIGHT DRIVE,LOVELAND,Colorado,USA,80538,
50006100,"CONNECTOR CONCEPTS, INC.",1530 MCCORMICK BLVD,MUNDELEIN,Illinois,USA,60060,
50008827,CONRADS TOOL (CH),PO BOX HM 1851,HAMILTON,BM/Not assigned,Bermuda,HM HOC,
50001427,CONSTAR SUPPLY (CH),200 PARK CREEK DR.,CLOVIS,California,USA,93611,
50004192,CONSTRUCTION MATERIAL GROUP (CH),PO BOX 1347,HARRSIONBURG,Virginia,USA,22803-1347,
50004850,CONSTRUCTION MATERIALS (CH),8 MASSIMO DRIVE,NORTH HAVEN,Connecticut,USA,6473,
50001508,CONSTRUCTION PRODS & CONSULT (CH),PO BOX 84433,SIOUX FALLS,South Dakota,USA,57118,
50004544,"CONSTRUCTION SAFETY PRODUCTS, INC (",359 MT ZION ROAD,SHREVEPORT,Louisiana,USA,71106,
50003050,CONSTRUCTION SUPPLY COMPANY (CH),201 YORK STREET,BELLINGHAM,Washington,USA,98225,
50009538,CONSTRUCTION SUPPLY GROUP (CH),2570 KASOTA AVE,ST. PAUL,Minnesota,USA,55108,
50000186,CONSTRUCTION TOOL & SUPPLY (CH),5213 S 30TH STREET #C300,PHOENIX,Arizona,USA,85040,
50001046,CONSULTORES TECNICOS INGEOS S.A.,"PLANTA BAJA EDIFICIO ANFE, CALLE 27",SAN JOSE,CR/Not assigned,Costa Rica,10107,
50004628,CONSURV LLC (CH),112 HUMPHRIES DRIVE,REYNOLDSBURG,Ohio,USA,43068,
50007294,CONTRACTOR SOLUTIONS (CH),5325 NW 2ND AVE,DES MOINES,Iowa,USA,50313,
50000615,CONTRACTORS MACHINERY (SK/ CH),3310 WRIGHT FERRY ROAD,LOUISVILLE,Tennessee,USA,37777-4138,
50005094,CONTRACTORS MACHINERY TRI CITIES IN,632 EASTERN STAR RD,KINGSPORT,Tennessee,USA,37663,
50004667,CONTRACTORS SUPPLY INC -COLORADO (C,5515 W. WARREN AVENUE,DENVER,Colorado,USA,80227,
50000063,CONTRACTORS SUPPLY INC-RHODE ISLAND,PO BOX 15086,RIVERSIDE,Rhode Island,USA,2915,
50001546,CONTRACTORS SUPPLY LLC (CH),17 VIADUCT RD RESEARCH PARK,STANFORD,Connecticut,USA,6907,
50009314,CONTRACTORS SUPPLY PLUS (CH),PO BOX 2045,OLIVE BRANCH,Mississippi,USA,38654,
50000280,"CONTRACTORS SUPPLY, INC. (SK)",5515 W WARREN AVENUE,DENVER,Colorado,USA,80227-3742,
50003280,CONTROL LASER Y POSICION GPS SA DE,CAMINO RANCHO LA ORTICENA S/N COL.,JALISCO,Jalisco,Mexico,47905,
50008450,CONTROLS & WEIGHING SYSTEMS INC (AG,PO BOX 549,BRANDON,Florida,USA,33509,
50007662,CONVEY-ALL INDUSTRIES INC (AG),130 CANADA STREET,WINKLER,Manitoba,Canada,R6W 0J3,
50004286,COOPER TRADING INC (channel),PO BOX 339,IRWIN,Pennsylvania,USA,15642,
50001526,COTECMI CIA LTDA,AV. DIEGO DE ALMAGRO N32-353 Y SHYR,QUITO,EC/Not assigned,Ecuador,170150,
50001856,COTTONWOOD COOP OIL COMPANY,PO BOX 318,COTTONWOOD,Minnesota,USA,56229,
50008597,COUNTRY SCALE & EQUIPMENT,49 MITCHELL STREET,SHEPPARTON,Victoria,Australia,3630,
50007683,COWCO INC (AG),3780 S STATE HIGHWAY 7,NORTH VERNON,Indiana,USA,47265,
50003306,CPD-CUSTOM PRODUCT DEVELOPMENT,P.O. BOX 672,LIVERMORE,California,USA,94551-0672,
50006853,CPG WHOLESALE (CH),12101 N. MACARTHUR BLVD STE 311,OKLAHOMA CITY,Oklahoma,USA,73142,
50003202,CPS -TANGENT (SGIS),PO BOX  269,TANGENT,Oregon,USA,97389,
50000298,CRASH DYNAMICS,PO BOX 1324,HURST,Texas,USA,76053,
50001697,"CROP IMS, LLC (AG)",405 SOUTH BANKER ST,EFFINGHAM,Illinois,USA,62401,
50007669,CROP IMS-BRISTOL (AG),15403 82ND PLACE,BRISTOL,Wisconsin,USA,53104,
50001802,CROP PRODUCTION SERVICES,42136 HWY 6/34,ARAPAHOE,Nebraska,USA,68922,
50007975,CROSSCUT SOLUTIONS INC (AG),E5763 COUNTY RD B,MANAWA,Wisconsin,USA,54949,
50008667,CROWN RENTALS INC (CH),89-19 LIBERTY AVE,QUEENS,New York,USA,11417,
50006565,"CROWN TO GROUND SUPPLY, INC.",6315-B FM 1488 RD  #148,MAGNOLIA,Texas,USA,77354,
50008758,CRUST BUSTER (AG),PO BOX 1438,DODGE CITY,Kansas,USA,67801,
50000425,CSI MAPPING (SK),"16012 METCALF AVE., SUITE 300",STILWELL,Kansas,USA,66085,
50004765,CSS CONTRACTORS AND SURVEYORS (CH),4001 PERIDOT PATH,EAGAN,Minnesota,USA,55122,
50001764,CULACIATI INSTRUMENTOS SPA,SEMINARIO 976,NUNOA,RM - Santiago,Chile,7750047,
50009485,CYBERNET SYSTEMS CORP,3741 PLAZA DRIVE,ANN ARBOR,Michigan,USA,48108,
50009020,DAIRYLAND SUPPLY (AG),40563 STATE HWY 28,SAUK CENTRE,Minnesota,USA,56378,
50005518,"DAKOTA FLUID POWER, INC.",3409 N. LEWIS AVENUE,SIOUX FALLS,South Dakota,USA,57104,
50008414,DALLAS AERO AND SALES LLC (AG),128 AIRPORT ROAD,DALLAS,Montana,USA,59255,
50008561,DANIELS MANUFACTURING CO (AG),PO BOX 67,AINSWORTH,Nebraska,USA,69210,
50004638,DANSE EQUIPMENT CO INC (CH/SK),12201 DISTRIBUTION PLACE,BELTSVILLE,Maryland,USA,20705,
50007739,DARE TECHNOLOGY INC (AG),PO BOX 609,PICTURE BUTTE,Alberta,Canada,T0K 1V0,
50001959,"DATABANK IMX, LLC (SK)",3000 DESOTO STREET,MONROE,Louisiana,USA,71201,
50008386,DAVES REPAIR FARM EQUIPMENT (AG),640 51ST ST,HILLS,Minnesota,USA,56138,
50007970,DAVID KING ELECTRONICS (AG),"MEADOW VIEW FARM, HEATH END",SNITTERFIELD,Warwickshire,United Kingdom,CV37 0PL,
50003269,DC ELECTRONICS INC.,P O BOX 28463,SAN JOSE,California,USA,95159,
50004870,DEATON'S GEO-TRONICS (CH),723 AEDC ACCESS ROAD,HILLSBORO,Tennessee,USA,37342,
50004168,DEATONS GEO-TRONICS INC (CH/SK/SUR),723 AEDC ROAD,HILLSBORO,Tennessee,USA,37342,
50006859,DEERE-HITACHI CONSTRUCTION,PO BOX 1187,KERNERSVILLE,North Carolina,USA,27285-1187,
50008342,DEERLAND EQUIPMENT (AG),2101 48TH AVE,ATHABASCA,Alberta,Canada,T9S 1B8,
50008343,DEERLAND EQUIPMENT (AG),8599 112 Street,FORT SASKATCHEWAN,Alberta,Canada,T8L 3V3,
50007745,DEGELMAN INDUSTRIES LTD (AG),PO BOX 830,REGINA,Saskatchewan,Canada,S4P 3B1,
50004626,DEIKE IMPLEMENT,PO BOX 834,WAVERLY,Iowa,USA,50677,
50008348,DELTA POWER EQUIPMENT (AG),"5458 LINE 34, HIGHWAY 8",MITCHELL,Ontario,Canada,N0K 1N0,
50006163,DERCOMAQ S.A.,AV. AMERICO VESPUCIO 1838 - QUILICU,"QUILICURA, SANTIAGO",RM - Santiago,Chile,#,
50009516,DETHMERS MANUFACTURING COMPANY (DEM,4010 320TH STREET,BOYDEN,Iowa,USA,51234,
50001698,DEY'S EQUIPMENT,185022 CORNELL ROAD,TILLSONBURG,Ontario,Canada,N4G 4G8,
50009323,DIAMOND DRILLING & SUPPLY INC. (CH),2916 WEST FIRST ST.,DULUTH,Minnesota,USA,55806,
50004825,"DICARLO PRECISION INSTRUMENT, INC (",2006 NORTHWOOD DRIVE,SALISBURY,Maryland,USA,21801,
50008777,DIDION ETHANOL LLC (AG),PO BOX 400,JOHNSON CREEK,Wisconsin,USA,53038,
50009275,DIGITAL CONSTRUCTION WORKS,685 STOCKTON DRIVE,EXTON,Pennsylvania,USA,19341,
50009997,DIRT PAN DEPOT (AG),203 NEWSOME DRIVE SUITE E.,MARK TREE,Arkansas,USA,72365,
50001756,DISENO S.A. DE C.V.,17A AVE NORTE #324 A.P. 2072,SAN SALVADOR,SV/Not assigned,El Salvador,1101,
50005187,DISTRIBUCION TOPOGRAFICA DE MEXICO,"INDUSTRIAL, 1,2-A DESARROLLO",CULIACAN,Sinaloa,Mexico,80300,
50006369,DISTRIBUIDORA NISSAN S.A.,CALLE 13 # 50-83,BOGOTA,BOGOTA,Colombia,111611,
50005174,DIVERSIFIED PROJECT SERVICES INT,5351 OLIVE DRIVE SUITE 100,BAKERSFIELD,California,USA,93308,
50000991,DK&B CONSTRUCTION SPECIALTIES,12231 ROBERTS ROAD,LA VISTA,Nebraska,USA,68128,
50009125,DOBBS EQUIPMENT,2730 S. FALKENBURG ROAD,RIVERVIEW,Florida,USA,33578,
50008213,DODGE MANUFACTURING CO INC (AG),454 SECOND ST,DODGE,Nebraska,USA,68633,
50006021,DOUGLAS LAKE EQUIPMENT,17924 56 AVENUE,SURREY,British Columbia,Canada,V3S 1C7,
50008210,DOWDYS SALES & SERVICE (AG),732 PEGGY STREET,TULARE,California,USA,93274,
50001815,DOWN NECK EQUIPMENT RENTALS INC (CH,192 CLIFFORD STREET,NEWARK,New Jersey,USA,7105,
50001864,"DOZIER CRANE & MACHINERY, INC",PO BOX 1137,POOLER,Georgia,USA,31322,
50000457,DRAFTING & TECHNICAL SUPPLY (SK),PO BOX 1598,SALEM,Virginia,USA,24153,
50005185,DRAGO INDIANA,6147 N  CO RD 500 W,MULBERRY,Indiana,USA,46058,
50000890,DRIVEKORE,"PO BOX 2004, 101 WESLEY DRIVE",MECHANICSBURG,Pennsylvania,USA,17055,
50004936,DUNCAN-PARNELL INC (CH/SK/SUR),PO BOX 35649,CHARLOTTE,North Carolina,USA,28235,
50007718,DURATECH IND INTERNATIONAL INC (AG),PO BOX 1940,JAMESTOWN,North Dakota,USA,58402-1970,
50007912,DYNAMIC UAV SOLUTIONS LLC,2307 SPRINGLAKE RD SUITE 516,DALLAS,Texas,USA,75234,
50006761,"DYNAPAC NORTH AMERICA, LLC.",342 PATRICIA LANE SUITE 104,FORT MILL,South Carolina,USA,29708,
50007949,E RISSLER MFG (AG),2794 BRUMBAUGH ROAD,NEW ENTERPRISE,Pennsylvania,USA,16664,
50008375,"EAGLE RENTAL, INC (CH)",1327 N. READING ROAD,STEVENS,Pennsylvania,USA,17578,
50001255,EARL DUDLEY ASSOC.,PO BOX 320185,BIRMINGHAM,Alabama,USA,35232,
50001500,EASTPOINT LASER,5 EASTPOINT DRIVE SUITE 1,HOOKSETT,New Hampshire,USA,3106,
50000141,EASY DRIVE STAKE INC,4111 TODD LANE,AUSTIN,Texas,USA,78744,
50009313,EASY RENT-ALL CORP (CH),20 SOUTH AVE,LEWISTON,Maine,USA,4240,
50000855,EDUARDO PEREZ Y CIA LTD.,"MAR DEL PLATA, 1978, PROVIDENCIA",SANTIAGO,RM - Santiago,Chile,7500646,
50009059,EFC SYSTEMS INC (AG),9015 OVERLOOK BLVD,BRENTWOOD,Tennessee,USA,37027,
50008568,EGGER TRUCK & MACHINE LTD (AG),85 ROBINSON ROAD,DUNNVILLE,Ontario,Canada,N1A 2W1,
50001913,ELBURN COOPERATIVE,108 NORTH MAIN PO BOX 189,SYCAMORE,Illinois,USA,60178,
50003244,ELDON C STUTSMAN INC (T),PO BOX 250,HILLS,Iowa,USA,52235,
50004804,ELECTRO-OPTICAL INSTRUMENTS CO (CH),4885 RONSON CT STE E,SAN DIEGO,California,USA,92111,
50000165,ELECTRO-OPTICAL INSTRUMENTS CO (CH/,4885 RONSON CT STE E,SAN DIEGO,California,USA,92111-1813,
50000166,ELLERBUSCH INSTR SERVICE LLC (SK),4505 VINE,CINCINNATI,Ohio,USA,45217,
50004606,ELLIS ART & ENGINEERING (CH/SK),122 BROADWAY,CHICO,California,USA,95928,
50000168,ELLIS ART & ENGINEERING SUPPLIES (S,401 5TH STREET,EUREKA,California,USA,95501,
50007919,ELMERS MANUFACTURING LTD (AG),PO BOX 908,ALTONA,Manitoba,Canada,R0G 0B0,
50005007,EMBRATOP GEO TECHNOLOGIES LTDA,"AVE DR HUGO BELOCHI, 445-13TH FLOOR",SAO PAULO,Sao Paulo,Brazil,04310-030,
50007852,EMBRO FARM SYSTEMS INC (AG),"375058 LINE 37, RR 4",EMBRO,Ontario,Canada,N0J 1J0,
50002990,"ENCOMPASS USA, LLC",7400 NATIONAL DRIVE,LIVERMORE,California,USA,94550,
50008069,ENGEL AGRI-SALES CO (AG),1717 WEST MAIN,SAC CITY,Iowa,USA,50583,
50009163,ENGINEER SUPPLY LLC (CH/ SK),3310 MAYFLOWER DR,LYNCHBURG,Virginia,USA,24501,
50000607,ENGINEERING SUPPLY CO.,2490 ARNOLD INDUSTRIAL WAY UNIT P,CONCORD,California,USA,94520,
50008138,ENNS BROTHERS LTD (AG),310-400 FORT WHYTE WAY,OAK BLUFF,Manitoba,Canada,R4G 0B1,
50008802,"ENTERPRISE 1099, LLC  (CH)",PO BOX 152123,CAPE CORAL,Florida,USA,33915,
50007851,EQUIPEMENTS LAMBERT INC (AG),4250 VACHON ST,DRUMMONDVILLE,Quebec,Canada,J2B 6V4,
50001870,"EQUIPMENT RENTALS, INC. (channel)",23150 NYS RT. 12 BRADKET STREET RD.,WATERTOWN,New York,USA,13601,
50003357,"EQUIPMENT REPAINTING SERVICE, INC.",2760 JORDAN LN.,HUNTSVILLE,Alabama,USA,35816,
50008162,EQUIPOS LACTEOS LAGUNA SA DE CV (AG,BLVD CENTENARIO 100,TORREON,Coahuila,Mexico,27107,
50006809,"ERB EQUIPMENT CO., INC.",200 ERB INDUSTRIAL DRIVE,FENTON,Missouri,USA,63026,
50000714,"ERCO CEILINGS, INC. (CH)",32 DELSEA DRIVE,GLASSBORO,New Jersey,USA,8028,
50008740,ERICKSON IMPLEMENT INC (AG),6719 HWY 200,CARRINGTON,North Dakota,USA,58421-8701,
50007614,ERIE VAMC (GSA),135 EAST 38TH ST,ERIE,Pennsylvania,USA,16504,
50009155,"ESCALANTE SANCHEZ ALVARADO, S.A.",KM 8 1/2 CARRETERA NORTE,MANAGUA,NI/Not assigned,Nicaragua,11073,
50007985,ESSENTIAL NUTRIENT SYSTEMS(PTY)(AG),PO BOX 68544,PRETORIA,ZA/Not assigned,South Africa,169,
50004629,ESSEX RENTAL AND SALES CENTER INC (,26 KELLOGG ROAD,ESSEX JUNCTION,Vermont,USA,5452,
50007882,"EUCLID POSITIONING SYSTEMS, INC",12932 SW 50 STREET,MIRAMAR,Florida,USA,33027,
50008278,EUROMILK SAC (AG),"JR JOSE MORELOS, NRO 136",PUEBLO LIBRE-LIMA,PE/Not assigned,Peru,1,
50005206,EUTAW CONSTRUCTION COMPANY,PO BOX 2482,MADISON,Mississippi,USA,39130,
50008474,"EVANS RANCH, INC. (AG)",PO BOX 458,LITTLE RIVER,Texas,USA,76554,
50004730,EVERGLADES FARM EQUIPMENT CO (AG),PO BOX 910,BELLE GLADE,Florida,USA,33430,
50008223,EVEY TRUE VALUE HARDWARE & RENTAL (,5579 LIBRARY ROAD,BETHEL PARK,Pennsylvania,USA,15102,
50008256,EVOLUTION AG LLC (AG),13275 US ROUTE 42,PLAIN CITY,Ohio,USA,43064,
50003288,EXACTAG LLC,80829 COUNTY ROAD 13,OLIVIA,Minnesota,USA,56277,
50009032,EXCELSIOR INC. (AG),2681 N. BUSINESS PARK AVE,FRESNO,California,USA,93727,
50007362,EXPERT AGRI SERVICES,GENROBINWEG 38,WANICA,SR/Not assigned,Suriname,0,
50003490,"EXPORT PACKAGING CO., INC",P.O. Box 733,Moline,Illinois,USA,61266,
50001810,E-Z RENT-ALL (channel),3950 NINE MILE ROAD,CINCINNATI,Ohio,USA,45255,
50008089,FARM AID EQUIPMENT INC (AG),6718 REVERE AVE,MILWAUKEE,Wisconsin,USA,53213,
50001450,FARM DEPOT LTD. (AG),275 COLUMBIA STREET,CARO,Michigan,USA,48723,
50009010,FARM EQUIPMENT HEADQUARTERS,PO BOX 1536,PENDLETON,Oregon,USA,97801,
50001480,"FARM TECH, LLC (AG)",PO BOX 821,CHOTEAU,Montana,USA,59422,
50007980,FARM WORK SERVICES LLC (AG),1626 DAISY HOLLOW RD,CORTLAND,New York,USA,13045,
50001792,"FARMRX, LLC (SGIS)",440 HWY 4 SOUTH,TRIMONT,Minnesota,USA,56176,
50008036,FARMTRONICS (AG),380 HENDERSON DRIVE,REGINA,Saskatchewan,Canada,S4N 5W9,
50003483,FARRELL EQUIPMENT & SUPPLY (CH),1510 NORTH HASTINGS WAY,EAU CLAIRE,Wisconsin,USA,54703,
50008004,FAST AG SOLUTIONS (AG),4130 COMMERCE BLVD,WINDOM,Minnesota,USA,56101,
50000197,FASTENAL COMPANY (CH),"ATTN: A/P, PO BOX 348",WINONA,Minnesota,USA,55987,
50007943,FEEDING SYSTEMS LLC (AG),2500 E 23RD STREET,COLUMBUS,Nebraska,USA,68601,
50009495,FERGUSON ENTERPRISES (CH),13785 WARWICK BLVD,NEW PORT NEWS,Virginia,USA,23602,
50007482,FERRARA EQUIPMENT CO (CH),418 S. WASHINGTON HWY,ASHLAND,Virginia,USA,23005,
50003060,FISHER'S TOOLS (CHANNEL),1990 E. 3RD ST.,TEMPE,Arizona,USA,85281,
50006365,FIVE S CONSTRUCTION,20269 HIGHLAND ROAD,BATON ROUGE,Louisiana,USA,70817,
50006946,"FIVE STAR EQUIPMENT, INC.",PO BOX 176,DUNMORE,Pennsylvania,USA,18512,
50008783,"FLIP ELECTRONICS, LLC","1007 MANSELL ROAD, SUITE C",ROSWELL,Georgia,USA,30076,
50000856,FLORIDA LEVEL & TRANSIT CO (CH/SUR),809 PROGRESSO DRIVE,FT LAUDERDALE,Florida,USA,33304,
50009762,"FLUID MOTION SALES, INC.","11220 GRADER STREET, SUITE 700",DALLAS,Texas,USA,75238,
50000583,"FORESTRY SUPPLIERS, INC",205 WEST RANKIN STREET,JACKSON,Mississippi,USA,39201,
50000182,FORT SMITH BLUEPRINT INC (SK),"2001 ROGERS AVENUE, SUITE B",FT SMITH,Arkansas,USA,72901,
50006979,FOSTER'S AGRI-WORLD,PO BOX 629,BEAVERLODGE,Alberta,Canada,T0H 0C0,
50000183,FOTORECORD CO (SK),45 E PITTSBURGH STREET,GREENSBURG,Pennsylvania,USA,15601,
50000022,FRANCO & HERMANOS (SK),CARRERA 15 No.88- 64 OFICINA 716,BOGOTA D.C.,BOGOTA,Colombia,110311,
50003177,FREDERICKSBURG FMS COOP (SGIS),110 NORTH JEFFERSON BOX 261,FREDERICKSBURG,Iowa,USA,50630,
50007929,FRONTIER AG AND TURF (AG),730 DEERE DR,NEW RICHMOND,Wisconsin,USA,54017,
50000546,FRONTIER PRECISION INC,1713 BURLINGTON DRIVE,BISMARK,North Dakota,USA,58504,
50008076,FRONTLINE AG SOLUTIONS (AG),PO BOX 7188,GREAT FALLS,Montana,USA,59406,
50007746,FSI FABRICATION (AG),PO BOX 838,SUNNYSIDE,Washington,USA,98944,
50000997,FUGRO- OMNISTAR,"LOYANG OFFISHORE SUPPLY BASE, P.O.B",LOYANG CRESENT,Singapore,Singapore,508988,
50006379,"FUJI LOGIX CO., LTD.",1-31 SHINDEN NISHI-MACHI,DAITO,Osaka,Japan,5740057,
50006342,"FUKUI COMPUTER CO., LTD. (SGIS)","5-6, MARUOKACHU ISOBEFUKUSHO",SAKAI-SHI,Fukui,Japan,9100297,
50004962,FULL LINE AG LTD (AG),BOx #257 RR#4 SUITE 412,SASKATOON,Saskatchewan,Canada,S7K 3J7,
50008316,FUTURE AG INC (AG),69 Belich Crescent,RED DEER,Alberta,Canada,T4S 2K5,
50007730,G K MACHINE (AG),PO BOX 427,DONALD,Oregon,USA,97020,
50000417,G L G ART CUSTOM ENGRAVING (SK),"13323 W HILLSBOROUGH AVE, UNIT D102",TAMPA,Florida,USA,33635,
50000384,G4 SPATIAL TECHNOLOGIES (SK),PO BOX 19014,AUSTIN,Texas,USA,78760,
50004981,GAITHERSBURG CONST SUPPLY (CH),8004 BEECHCRAFT AVE,GAITHERSBURG,Maryland,USA,20879,
50009857,GALILEO INSTRUMENTS S.A.S.,CRA 74 N 48 37 INT 255,MEDELLIN,ANTIOQUIA,Colombia,50034,
50000187,GALLUP BLUEPRINT CO (SK),913 WEST AZTEC AVE,GALLUP,New Mexico,USA,87301,
50009146,GAMS POWER TOOLS & SUPPLIES (CH),133-135 SCHUXIER AVE,KEARNY,New Jersey,USA,7032,
50003325,GCS SUPPLY,15900 W 103RD STREET,WOODRIDGE,Illinois,USA,60439,
50005234,"GEBHARDT FARM MANAGEMENT, INC. (SGI",28710 PROSPECT AVE.,WASCO,California,USA,93280,
50007716,GEHL CO/MANITOU AMERICAS INC (AG),PO BOX 179,WEST BEND,Wisconsin,USA,53095-0179,
50004147,"GEO NETWORKING, INC (CH/SK)",920 LEE RD,ORLANDO,Florida,USA,32810,
50000939,GEOCON S.A.,"WILLIAM RICHARDSON N 598, ESQUINA C",ASUNCION,PY/Not assigned,Paraguay,1625,
50001058,GEOGRAFIA Y FORESTERIA S.A. (GYFSA),3RA CALLE A 1-48 ZONA 10,CIUDAD DE GUATEMALA,GT/Not assigned,Guatemala,1001,
50005200,"GEO-INSTRUMENTS, INC.",24 B CELESTIAL DRIVE,NARRAGANSETT,Rhode Island,USA,2882,
50001977,"GEOLOGICAL TOOLS & OUTFITTER, LLC (",71 N 200 W,BRIGHAM CITY,Utah,USA,84302,
50000914,GEOMATIC INSTRUMENTS CORP,AVENIDA PASEO LA CASTELLANA No 567,LIMA,Lima y Callao,Peru,15048,
50000310,GEOMATIC SUPPLIES & SALES LLC (SK),2912 WEST STORY ROAD,IRVING,Texas,USA,75038,
50000579,GEORGIA SURVEYORS EXCHANGE,101A N. GAMBLE ROAD,SAVANNAH,Georgia,USA,31405,
50001759,"GEOSATELITES, S.A.","DETRAS DEL C.C. ZUMEN, NO. 26",MANAGUA,NI/Not assigned,Nicaragua,13011,
50001021,GEOSHACK - OHIO,2307 SPRINGLAKE ROAD SUITE 514,DALLAS,Texas,USA,75234,
50000976,GEOSHACK CANADA - CONCORD,35 MCCLEARY COURT UNIT 21,CONCORD,Ontario,Canada,L4K 3Y9,
50005756,GEOSHACK NORTH AMERICA-CAD,2307 SPRINGLAKE ROAD SUITE 514,DALLAS,Texas,USA,75234,
50000440,GEOSHACK OHIO LLC-STOW (sf),"883 HAMPSHIRE ROAD, SUITE J",STOW,Ohio,USA,44224,
50004983,GEOSHACK SOUTHWEST - DALLAS,2307 SPRINGLAKE ROAD SUITE 514,DALLAS,Texas,USA,75234,
50004224,GEOSHACK WEST LLC - DALLAS,2307 SPRINGLAKE ROAD SUITE 514,DALLAS,Texas,USA,75234,
50000948,GEOSISTEMAS S.R.L.,VENEZUELA 676,BUENOS AIRES,Buenos Aires,Argentina,1095,
50001747,GEOSYSTEM- PANAMA,FRENTE A DOIT CENTER DEL DORADO,PANAMA CITY,PA/Not assigned,Panama,1497,
50003525,GEOTYPE OF SOUTH FLORIDA (SK),470 NE 167TH STREET,N. MIAMI BEACH,Florida,USA,33162,
50009771,GF LOGIC LLC (AG),459 S STATE ROUTE 559,WOODSTOCK,Ohio,USA,43084,
50007965,GL2 REPAIR LTD (AG),BOX 1592,STETTLER,Alberta,Canada,T0C 2L0,
50000196,GLASS EYE  THE (SK),1969 OBISPO AVENUE,SIGNAL HILL,California,USA,90755-1223,
50009933,GLENDALE INDUSTRIAL SUPPLY (CH),2121 N. 23RD AVE,PHOENIX,Arizona,USA,85009,
50003180,GLENDENNING FERTILIZER (T),504 N WALNUT,BYRON,Illinois,USA,61010,
50009966,GM EQUIPMENT CORP (CH),1229 MILLION DOLLAR HWY,KERSEY,Pennsylvania,USA,15846,
50009807,GMES LLC (CH),1391 E BOONE INDUSTRIAL BLVD,COLUMBIA,Missouri,USA,65202,
50000003,GOMACO CORPORATION,PO BOX 152,IDA GROVE,Iowa,USA,51445,
50009746,GOODMANSON CONSTRUCTION (T),600 KASOTA AVE SE,MINNEAPOLIS,Minnesota,USA,55414,
50008165,GOOSENECK IMPLEMENT (AG),800 31ST AVE SW,MINOT,North Dakota,USA,58701,
50004200,GOT THAT RENTAL & SALES INC (CH),224 COLCHESTER ROAD,ESSEX JCT,Vermont,USA,5452,
50000872,"GPS ALASKA, INC","360 E. INTL AIRPORT RD, STE 10",ANCHORAGE,Alaska,USA,99518,
50008478,GPS ONTARIO LTD (AG),6558 3rd Line Road South,NORTH GOWER,Ontario,Canada,K0A 2T0,
50005998,GRAND FORKS COUNTY ENGINEER,1700 N. COLUMBIA ROAD,GRAND FORKS,North Dakota,USA,58203,
50004472,GRAND VALLEY REPROGRAPHICS (CH),565 25 ROAD #110,GRAND JUNCTION,Colorado,USA,81505,
50008123,GRAUER REPAIR SERVICE INC (AG),23230 DEJONG RD,SHERIDAN,Oregon,USA,97378,
50000203,"GRAYS HARBOR EQUIPMENT CO., INC. (s",410 S F ST.,ABERDEEN,Washington,USA,98520,
50007733,GREAT PLAINS MFG (AG),PO BOX 5060,SALINA,Kansas,USA,67402-5060,
50000206,GREATER BATON ROUGE ASSOC OF REALTO,14101 PERKINS ROAD,BATON ROUGE,Louisiana,USA,70810,
50008440,GREEN FIELD AG LLC (AG),953 EAST MADISON,GIBSONBURG,Ohio,USA,43431,
50008571,"GREEN INDUSTRIAL SUPPLY, INC.",1525 INNOVATION DRIVE,DUBUQUE,Iowa,USA,52040,
50007749,GREEN LEA AG CENTER (AG),RR 2,MOUNT ELGIN,Ontario,Canada,N0J 1N0,
50007972,GREEN LINE EQUIPMENT (AG),3303 WEST NORFORK,NORFORK,Nebraska,USA,68702,
50006389,GREGOIRE SAS,89 AVENUE DE BARBEZIEUX,COGNAC CEDEX,FR/Not assigned,France,16111,
50000188,GRIFFITH HAROLD W INC (CH),363 RAGLAND RD,BECKLEY,West Virginia,USA,25801,
50008705,GRIMMWAY ENTERPRISES INC.,PO BOX 81498,BAKERSFIELD,California,USA,93389-1498,
50006348,GROUNDPROBE PTY LTD,72 NEWMARKET ROAD,WINDSOR,Queensland,Australia,4030,
50004546,GROUPE SYMAC S.E.C.,15100 CHEMIN DE LA COOPERATIVE,SAINT-HYACINTHE,Quebec,Canada,J2R 1S2,Nothing on Website: http://www.groupesymac.com/
50006822,GRUPO CORPORATIVO SA (AG),CORONEL GONZALEZ 662 CASI,"SAN ESTANISLAO, SAN PEDRO",PY/Not assigned,Paraguay,8120,can't find website
50001418,GRUPO GINPRO SA DE CV,"BELISARIO DOMINGUEZ #2012, MONTERRE",MONTERREY,Nuevo Leon,Mexico,64060,They have Topcon and Sokkia: https://www.grupoginpro.com/
50007705,GRUPO IT RANCH SA DE CV (AG),"FRESNO 1442, COL MODERNA",MONTERREY,Nuevo Leon,Mexico,64530,can't find website
50005621,"GS GLOBAL RESOURCES, INC.",926 PERKINS DRIVE,MUKWONAGO,Wisconsin,USA,53149,Nothing on Website: https://www.gsglobalresources.com/
50007707,GS SCALES & DESIGN (AG),N2824 MONARCH LANE,FORT ATKINSON,Wisconsin,USA,53538,can't find website
50000311,"GTP SERVICES, LLC (CH/SK)",9375 SPRUCE MT RD,LARKSPUR,Colorado,USA,80118,Nothing on Website: https://gogtp.com/
50001648,GUARANTEED SUPPLY COMPANY (CH),PO BOX 36030,GREENSBORO,North Carolina,USA,27416,Nothing on Website: https://www.guaranteedsupply.com/
50006705,"GZA GEOENVIRONMENTAL, INC.",249 VANDERBILT AVENUE,NORWOOD,Massachusetts,USA,2062,Nothing on Website: https://www.gza.com/
50007732,H & H EQUIPMENT (AG),PO BOX 468,ALMA,Georgia,USA,31510,can't find website
50008132,H & R AGRI-POWER INC (AG),PO BOX 538,HOPKINSVILLE,Kentucky,USA,42241,Nothing on Website: https://www.hragripower.com/
50007845,H & S MANUFACTURING CO INC (AG),2608 S HUME AVE,MARSHFIELD,Wisconsin,USA,54449,Nothing on Website: http://www.hsmfgco.com/
50000693,H & S SURVEY & LASER (sb),"4445 S VALLEY VIEW, BLVD #2",LAS VEGAS,Nevada,USA,89103,can't find website
50008664,"H&S MFG, INC (AG)",32506 430TH ST N.W.,STEPHEN,Minnesota,USA,56757,Nothing on Website: https://hsmfginc.com/
50000749,HAAG & TRAMMELL INC. (CH/SK/SUR),200 RIDGELAKE DRIVE,METAIRIE,Louisiana,USA,70001,They have Topcon and Sokkia: http://haagtrammell.com/
50007724,HAGIE MANUFACTURING COMPANY (AG),PO BOX 273,CLARION,Iowa,USA,50525,Nothing on Website: https://www.hagie.com/
50001157,HALE & ASSOCIATES LTD.,PO BOX 2257,TAURANGA,Bay of Plenty,New Zealand,3110,can't find website
50004320,HANLON AG CENTRE,3005-18TH AVENUE NORTH,LETHBRIDGE,Alberta,Canada,T1H 5V2,They have Topcon and Sokkia: https://hanlonag.com/
50008173,HANSON AUTO AND IMPLEMENT (AG),14830 HWY 17 WEST,GRAFTON,North Dakota,USA,58237,Nothing on Website:  https://www.hansonai.com/
50007691,HARDI AUSTRALIA (AG),534-538 CROSS KEY ROAD,CAVAN,AU/Not assigned,Australia,5094,They have Topcon: https://www.hardi.com.au/
50008016,HARDI INTERNATIONAL,HERTHADALVEJ 10,NORRE ALSLEV,South Denmark,Denmark,4840,They have Topcon: https://hardi.com/en
50007666,HARDI NORTH AMERICA INC (AG),1500 WEST 76 ST,DAVENPORT,Iowa,USA,52806,Nothing on Website: https://www.hardi-us.com/
50008331,HARMS EQUIPMENT CO (AG),750 HWY 77,OAKLAND,Nebraska,USA,68045,can't find website
50007803,HARSH (AG),600 OAK AVE,EATON,Colorado,USA,80615,Nothing on Website: https://www.harshenviro.com/
50007236,"HARTMAN & COMPANY, INC",1200 E. WOODHURST  J-200,SPRINGFIELD,Missouri,USA,65804,
50003172,HARVESTLAND COOP R&F DIVISION (SGIS,4002 W 600 N,ANDERSON,Indiana,USA,46011,
50008745,HATFIELD MANUFACTURING INC (AG),1823 SHOESTRING ROAD,GOODING,Idaho,USA,83330,
50007738,HAUL-ALL INDUSTRIES (AG),PO BOX 572,ROSENORT,Manitoba,Canada,R0G 1W0,
50005879,"HAWE NORTH AMERICA, INC","13020 JAMESBURG DR., SUITE A",HUNTERSVILLE,North Carolina,USA,28078,
50001243,HAYES INSTRUMENT CO.,502 SOUTH CANNON BLVD,SHELBYVILLE,Tennessee,USA,37160,
50007915,HEARTLAND AG SYSTEMS,1180 HIGHWAY 7 EAST,HUTCHINSON,Minnesota,USA,55350,
50007997,HEARTLAND TRACTOR (AG),2900 N OSAGE BLVD,NEVADA,Missouri,USA,64772,
50008463,HEGGEN EQUIPMENT INC (AG),PO BOX 1408,WATFORD CITY,North Dakota,USA,58854,
50008152,HELENA CHEMICAL CO (AG),4440 STATE ROUTE 72,KIRKLAND,Illinois,USA,60146,
50007713,HELM WELDING (AG),PO BOX 158,LUCKNOW,Ontario,Canada,N0G 2H0,
50005220,HERC RENTALS INC (CH),PO BOX 704007,SALT LAKE CITY,Utah,USA,84170,
50008598,HERITAGE TRACTOR (AG),800 INDUSTRIAL PARK RD,BALDWIN CITY,Kansas,USA,66006,
50007954,HIAWATHA IMPLEMENT (AG),2000 OREGON ST,HIAWATHA,Kansas,USA,66434,
50007808,HIGH PLAIN EQUIPMENT (AG),8373 HIGHWAY 2 EAST,DEVILS LAKE,North Dakota,USA,58301,
50007992,HIGHLINE MANUFACTURING LTD (AG),BOX 39 500 HIGHWAY 368 NORTH,ST. BRIEUX,Saskatchewan,Canada,S0K 3V0,
50009000,HILLCO TECHNOLOGIES INC,1010 1ST AVE,NEZPERCE,Idaho,USA,83543,
50001247,"HILLTOP GLEN GOLF, INC. - CANTON",2134 FAIRWAY CIRCLE,CANTON,Michigan,USA,48188,
50008154,HILLTOP NUTRITION,131 SNYDER RD,OWEGO,New York,USA,13827,
50001875,HILLTOP TOOL RENTAL (CH),30702 SH 249,TOMBALL,Texas,USA,77375,
50007996,HINIKER COMPANY (AG),58766 240TH ST,MANKATO,Minnesota,USA,56001,
50009528,HI-TEC INDUSTRIES (AG),BOX 1127 1000-6TH STREET,PORTAGE LA PRARIE,Manitoba,Canada,R1N 3C5,
50000233,HIXON MFG & SUPPLY CO (CH),1001 SMITHFIELD DRIVE,FORT COLLINS,Colorado,USA,80524-8565,
50008189,HJV EQUIPMENT (AG),240 MASON ROAD,STARTFORD,Prince Edward Island,Canada,C1B 2E9,
50007725,HOG SLAT (AG),PO BOX 300,NEWTON GROVE,North Carolina,USA,28366,
50008376,HOLDREGE EQUIPMENT LLC (AG),1009 WEST US HWY 6,HOLDREGE,Nebraska,USA,68949,
50008078,HOLLAND AND SONS INC (AG),PO BOX 528,MENDOTA,Illinois,USA,61342,
50006469,HOLLAND EQUIPMENT (CH),2870 WEST 2100 SOUTH,SALT LAKE CITY,Utah,USA,84119,
50007907,HOMAN INC (AG),6915 OLDING RD,MARIA STEIN,Ohio,USA,45860,
50007686,HOMER SCALE (AG),3989 US HWY 60,HEREFORD,Texas,USA,79045,
50007946,HOOBER INC (AG),PO BOX 518,INTERCOURSE,Pennsylvania,USA,17534,
50007896,HORIZON EQUIPMENT CO (AG),PO BOX 217,MANNING,Iowa,USA,51455,
50000339,HORNER'S JACK MACH & CONTR SUPPLIER,PO BOX 248,ST JOSEPH,Missouri,USA,64502,
50007664,HORSCH LLC,14118 414 AVE,ANDOVER,South Dakota,USA,57422,
50007895,HORSCH LLC (AG),200 KNUTSON ST SE,MAPLETON,North Dakota,USA,58059,
50007994,HORST WELDING,8082 RD 129 RR 3,LISTOWEL,Ontario,Canada,N4W 3G8,
50007721,HOSTETLER SCALES (AG),PO BOX 217,IMPERIAL,California,USA,92251,
50004212,H-SQUARED LLC dba PRO TILL,31434 C.R. 57,OTIS,Colorado,USA,80743,
50008775,HTS AG (AG),653 OAK RD,HARLAN,Iowa,USA,51537,
50001809,HUB CONSTRUCTION SPECIALTIES (CH),700 SOUTH I STREET,SAN BERNARDINO,California,USA,92410,
50000242,HUBS HAWAII (SK),85 POOKELA STREET,HILO,Hawaii,USA,96720,
50000245,HUNTOONS  INC (SK),3220 HEWES AVENUE,GULFPORT,Mississippi,USA,39507-2994,
50007950,HURON TRACTOR LTD (AG),39995 HARVEST RD,EXETER,Ontario,Canada,N0M 1S3,
50007889,HURST FARM SUPPLY INC (AG),224 HWY 82 EAST,LORENZO,Texas,USA,79343,
50006576,HUTTERIAN BRETHREN CHURCH,BOX 730,FORT MCLEOD,Alberta,Canada,T0L 0Z0,
50003406,HYDE BROTHERS FARM EQUIPMENT LTD,39992 RODGERVILLE ROAD,HENSALL,Ontario,Canada,N0M 1X0,
50005526,"HYDRAFORCE, INC",500 BARCLAY BOULEVARD,LINCONSHIRE,Illinois,USA,60069-4314,
50005527,HYDRA-POWER SYSTEMS,5445 NE 122ND AVENUE,PORTLAND,Oregon,USA,97230,
50007014,HYDRAULIC CONTROLS INC.,4700 SAN PABLO AVENUE,EMERYVILLE,California,USA,94608,
50005622,HYPOWER SYSTEMS,PO BOX 338,SASKATOON,Saskatchewan,Canada,S7K 3L3,
50000524,I R INCORPORATED (SK),512 18TH STREET,ORLANDO,Florida,USA,32805,
50005154,I-5 SUPPLY,PO BOX 7039,OLYMPIA,Washington,USA,98507,
50006069,"ICON AUTOMATION, INC.",644 ERIN STREET,WINNIPEG,Manitoba,Canada,R3G 2V9,
50004890,IDAHO TOOL AND EQUIPMENT (CH),452 CALDWELL BOULEVARD,NAMPA,Idaho,USA,83651,
50006537,"IDEAL CONCRETE BLOCK CO., INC. (CH)",PO BOX 747,WESTFORD,Massachusetts,USA,1886,
50005519,IFM EFECTOR INC.,1100 ATWATER DRIVE,MALVERN,Pennsylvania,USA,19355,
50007865,IH RISSLER MAN (AG),448 ORCHARD RD,MOHNTON,Pennsylvania,USA,19540-9440,
50001795,ILLINI CONTRACTORS SUPPLY (CH),706 W. BRADLEY,CHAMPAIGN,Illinois,USA,61820,
50005664,IMPERIAL INDUSTRIAL SUPPLY (CH),5798 ONTARIO MILLS PARKWAY,ONTARIO,California,USA,91764,
50001743,IMTEC GROUP LTD (CH/SK),17533 E. 36TH ST.  CT S,INDEPENDENCE,Missouri,USA,64055,
50008576,INDEPENDENT AG EQUIPMENT (AG),PO BOX 358,BIGLERVILLE,Pennsylvania,USA,17307,
50006680,INDIANA FLUID POWER,3911 MERCHANT ROAD,FORT WAYNE,Indiana,USA,46818,
50006112,INGENIERIA GPS,LA LEY DEL SEGURO SOCIAL NO. 545,IRAPUATO,Guanajuato,Mexico,36644,
50001375,INNOTAG DISTRIBUTIONS INC. (AG),2080 PIERRE-LOUIS-LE TOURNEUX,BELOEIL,Quebec,Canada,J3G 6S8,
50008238,INSTRUCELL COMERCIO E MANUTENCAO,436 FUNDOS VILA BRASILIA,SAO CARLOS,Sao Paulo,Brazil,13566-630,
50008352,INSUMOS Y CIA SA,RUTA NACIONAL 14 KM 330,CHAJARI ENTRE RIOS,AR/Not assigned,Argentina,3228,
50007951,INTEGRITY AG GROUP LLC (AG),8183 US HWY 641 N,ALMO,Kentucky,USA,42020,
50006425,Intel Deutschland GmbH,Postfach 11 10,Neubiberg,DE/Not assigned,Germany,85571,
50001003,INTEQ DISTRIBUTORS US - DALLAS,2307 SPRINGLAKE ROAD SUITE 514,DALLAS,Texas,USA,75234,
50000897,"INTEQ DISTRIBUTORS, INC",240 THAMES ROAD WEST,EXETER,Ontario,Canada,N0M 1S3,
50005916,"INTERAGROVIAL, S.A.",RUTA 1 N 2544 ESQUINA CAMINO CIBILS,MONTEVIDEO,UY/Not assigned,Uruguay,12800,
50006588,INTERMOUNTAIN CONCRETE SPECIALTIES,425 WEST 1700 SOUTH,SALT LAKE CITY,Utah,USA,84115,
50000825,"IOWA TRANSIT, INC.",PO BOX 249,WINTERSET,Iowa,USA,50273,
50009266,IPACOL MAQUINAS AGRICOLAS LTDA.,"RUA ZELINDO FRIZON, 257",VERANOPOLIS,Rio Grande do Sul,Brazil,95330-000,
50007647,"IPRECISION AGRICULTURE, INC. (AG)",310 W RANDOLPH,MC LEANSBORO,Illinois,USA,62859,
50009044,IRIS TECHNOLOGIES LLC (AG),716 DEHOFF DRIVE,MANHATTAN,Kansas,USA,66502,
50001670,IRON SOURCE (CH),25113 DUPONT BLVD,GEORGETOWN,Delaware,USA,19947,
50009183,"IRONWOOD 53, LLC (AG)",2551 320TH ST.,ROCK VALLEY,Iowa,USA,51247,
50008183,ITS GLOBAL (AG),#40 64062 393 AVE EAST,OKOTOKS,Alberta,Canada,T1S 0L1,
50001700,IVA MANUFACTURING,175 CHURCHTOWN ROAD,NARVON,Pennsylvania,USA,17555,
50008220,IVEYS OUTDOOR & FARM SUPPLY (AG),108 N WESTOVER BLVD,ALBANY,Georgia,USA,31707,
50007500,IVOLVE PTY LTD,"LEVEL 7, BUILDING A4, SW1",SOUTH BRISBANE,Queensland,Australia,4101,
50007667,J & A MANUFACTURING INC-PIXLEY (AG),"1503 W ORLAND AVENUE, PO DRAWER L",PIXLEY,California,USA,93256,
50007736,J & M MANUFACTURING CO INC (AG),PO BOX 547,FORT RECOVERY,Ohio,USA,45846-0547,
50004291,J AND R SUPPLY INC (CH),220 FRENTRESS LAKE ROAD,EAST DUBUQUE,Illinois,USA,61025,
50007752,J BOND & SONS LTD (AG),UNIT 103 - 31413 GILL AVE,MISSION,British Columbia,Canada,V4S 0A1,
50008320,J L FARM EQUIPMENT (AG),1814 WEST 100 NORTH,#,Indiana,USA,47670,
50008215,J M EQUIPMENT CO INC (AG),321 SPRECKELS AVE,MANTECA,California,USA,95336,
50000764,J.C. EQUIPMENT & LEASING CO.,2300 EAST KEMPER ROAD,CINCINNATI,Ohio,USA,45241,
50007688,JACKRABBIT,471 INDUSTRIAL AVE,RIPON,California,USA,95366,
50008018,JACOBI SALES (AG),PO BOX 67,PALMYRA,Indiana,USA,47164,
50008641,JAMES RIVER EQUIPMENT,11053 LEADBETTER RD,ASHLAND,Virginia,USA,23005,
50001395,JAMES RIVER EQUIPMENT & SUPPLY - NE,PO BOX 3176,NEWPORT NEWS,Virginia,USA,23603,
50004697,JAMES RIVER EQUIPMENT & SUPPLY (CH),1716A SOUTH PARK COURT,CHESAPEAKE,Virginia,USA,23320,
50001394,JAMES RIVER EQUIPMENT AND SUPPLY (C,10383 CEDAR LANE,GLEN ALLEN,Virginia,USA,23059,
50000652,JAMES RIVER LASER & EQUIP,711 SOUTH BROAD ST.,SALEM,Virginia,USA,24153,
50000355,JAMESON LLC (SK),1451 OLD NORTH MAIN STREET,CLOVER,South Carolina,USA,29710,
50001668,"JASPER WIRELESS, INC.","501 MACARA AVENUE, STE 202",SUNNYVALE,California,USA,94085,
50003299,"JAVA FARM SUPPLY, INC.",4862 ROUTE 98,NORTH JAVA,New York,USA,14113,
50007810,JAY-LOR FABRICATING (AG),071213 10TH LINE,EAST GARAFRAXA,Ontario,Canada,L9W 6Z9,
50001914,JB PEARL SALES (SGIS),27425 HWY 24,SAINT MARYS,Kansas,USA,66536,
50008482,JCB WORLD HEADQUARTERS (JCB WHQ),LAKESIDE WORKS,ROCESTER,Staffordshire,United Kingdom,ST14 5JP,
50000138,JDS SUPPLY CO (SK),PO BOX 11501,FORT SMITH,Arkansas,USA,72917,
50005630,JEFF BIDWELL (SGIS),1396 E. NORTHPORT ROAD,ROME CITY,Indiana,USA,46784,
50008156,JENNER AG INC (AG),PO BOX 139,HARRISTOWN,Illinois,USA,62537,
50006847,JENSEN EQUIPMENT (CH),PO BOX 607,PEWAUKEE,Wisconsin,USA,53072-0607,
50004408,JERSEY RENTS (CH),252 RT 9,BAYVILLE,New Jersey,USA,8721,
50006413,JESCO INC. - NJ/NY,1260 CENTENNIAL AVENUE,PISCATAWAY,New Jersey,USA,8854,
50000445,"JIMAR CONSTRUCTION PRODUCTS, LLC (C",1270 HAMMOND STREET SUITE 2,BANGOR,Maine,USA,4401,
50008518,"JLG INDUSTRIES, INC.",13200 FOUNTAINHEAD PLAZA SUITE 201,HAGERSTOWN,Maryland,USA,21742,
50007855,JOHN DEERE (AG),PO BOX 8808,MOLINE,Illinois,USA,61625,
50001129,JOHN DEERE- DUBUQUE WORKS,18600 SOUTH JOHN DEERE ROAD,DUBUQUE,Iowa,USA,52001,
50007704,JOHN DEERE FABRIEK HORST BV (AG),ENERGIESTRAAT 16,HORST,NL/Not assigned,Netherlands,5961 PT,
50001042,JOHN DEERE THIBODAUX,PO BOX 8808,MOLINE,Illinois,USA,61266,
50005175,"JOHN SCHMIDT & SONS, INC.",12903 EAST SILVER LAKE ROAD,MT. HOPE,Kansas,USA,67108,
50008227,JOHN WHITEHEAD ELECTRICAL LTD,5 MATOS SEGEDIN DRIVE,CAMBRIDGE,Waikato,New Zealand,3495,
50000282,JORDAN EQUIPMENT CO  FALMOUTH (SK),18 BLACKSTRAP ROAD,W. FALMOUTH,Maine,USA,4105,
50008301,JTI COLFAX LLC (AG),PO BOX 1967,THE DALLES,Oregon,USA,97058,
50006110,"K & H TOOL RENTAL, LLC (CH)",1221 NORWICH ROAD,PLAINFIELD,Connecticut,USA,6374,
50007998,KALE MARKETING INC (AG),14830 MILLER RD,RICHWOOD,Ohio,USA,43344,
50000290,KARA CO (CH),5255 DANSHER ROAD,COUNTRYSIDE,Illinois,USA,60525-3123,
50005172,KARCOMPANY,7400 NATIONAL DRIVE,LIVERMORE,California,USA,94550,
50009203,KAT MATERIALS INC.,6541 INDUSTRIAL AVE,PORT RICHEY,Florida,USA,34668,
50008438,KC NIELSEN LTD,HWY 3 EAST 2228 220TH STREET,HUMBOLDT,Iowa,USA,50548,
50009655,"KELLER INDUSTRIAL, INC.",100 STICKLE AVE,ROCKAWAY,New Jersey,USA,7866,
50008232,KELLYS GARAGE FARM EQUIPMENT (AG),2868 RTE 246,PERRY,New York,USA,14530,
50005949,KENNEBEC EQUIPMENT RENTAL CO INC (C,PO BOX 120,FAIRFIELD,Maine,USA,04937-0120,
50009170,"KENSETSU SYSTEM CO., LTD.","312-1, ISHIZAKA",FUJI,Shizuoka,Japan,4170862,
50009047,KESPRY INC.,4005 BOHANNON DRIVE,MENLO PARK,California,USA,94025,
50004980,KESTELOOT ENTERPRISES INC,2517 COUNTY ROAD 8,MARSHALL,Minnesota,USA,56258,
50000303,KEY BLUEPRINTS (SK),195 E LIVINGSTON AVENUE,COLUMBUS,Ohio,USA,43215-5745,
50000595,KEY POSITIONING SYSTEMS,195 E. LIVINGSTONE AVE,COLUMBUS,Ohio,USA,43215,
50000080,KEYSTONE PRECISION INSTRUMENTS (SK),1670 EAST RACE STREET,ALLENTOWN,Pennsylvania,USA,18109,
50008001,KIBBLE EQUIPMENT INC (AG),1340 JOHN DEERE CIRCLE,MADISON,South Dakota,USA,57042,
50008074,KIBBLE EQUIPMENT INC (AG),PO BOX 277,MONTEVIDEO,Minnesota,USA,56265,
50007744,KINZE (AG),PO BOX 806,WILLIAMSBURG,Iowa,USA,52361-0806,
50007748,KIRBY MANUFACTURING INC (AG),PO BOX 989,MERCED,California,USA,95341-0989,
50000811,KIT-MO RENTAL & SUPPLY,2401 N. 8TH STREET,PADUCAH,Kentucky,USA,42001,
50000810,"KLEIN SURVEY SYSTEMS, INC.",1211 N. 10TH STREET,LINCOLN,Nebraska,USA,68508,
50009114,KLING CONSTRUCTION INC.,"1865 W UNION AVE, STE. T",ENGLEWOOD,Colorado,USA,80110,
50005150,KMK SALES LTD,BOX 540,HUMBOLDT,Saskatchewan,Canada,S0K 2A0,
50001612,"KNICKERBOCKER RUSSELL CO., INC. (CH",4759 CAMPBELLS RUN RD,PITTSBURG,Pennsylvania,USA,15205,
50001596,KNIFE RIVER CORP (CH),PO BOX 66001,STOCKTON,California,USA,95206,
50005230,"KNOX EQUIPMENT RENTALS, INC. (CH)",421 E. MARKET STREET,WEST CHESTER,Pennsylvania,USA,19382,
50000305,KNOXVILLE BLUPRINT & SUPPLY (SK),PO BOX 3293,KNOXVILLE,Tennessee,USA,37927-3293,
50001499,KOMATSU AMERICA CORP,PO BOX 6007,RANTOUL,Illinois,USA,61866,
50006811,KOMATSU AMERICA CORP,108 N. INDUSTRIAL DRIVE,RIPLEY,Tennessee,USA,38063,
50006810,KOMATSU DO BRASIL LTDA,RODOVIA INDIO TIBIRICA,SUZANO CEP,Sao Paulo,Brazil,08655-000,
50007540,KOMATSU HOLDING SOUTH AMERICA LTDA.,AV AMERICO VESPUCIO #0631,QUILICURA,RM - Santiago,Chile,#,
50000943,KOMATSU LTD,"3-25-1 SHINOMIYA, HIRATSUKA-SHI",KANAGAWA,Kanagawa,Japan,2548555,
50007428,KOMATSU MITSUI MAQUINARIAS PERU S.A,AV. ARGENTINA 44 53 - CALLAO,"CALLAO, CALLAO",PE/Not assigned,Peru,CALLAO 1,
50003523,KOMATSU UK LTD,"DURHAM ROAD,BIRTLEY CHESTER-LE-STRE",DURHAM,GB/Not assigned,United Kingdom,DH3 2QX,
50005530,"KRAFT FLUID SYSTEMS, INC.",14300 FOLTZ PARKWAY,CLEVELAND,Ohio,USA,44149,
50008061,KRUSE REPAIR (AG),2773 20TH ROAD,HANOVER,Kansas,USA,66945,
50008155,KS DAIRY CONSULTING (AG),1733 90TH AVE,DRESSER,Wisconsin,USA,54009,
50009491,"KUHN KRAUSE, INC.",PO BOX 2707,HUTCHINSON,Kansas,USA,67504,
50009061,KUHN MONTANA INDUSTRIA DE MAQUINAS,"RUA FRANCISCO DAL NEGRO, 3400",SAO JOSE DOS PINHAIS,Parana,Brazil,83025-320,
50007513,KUHN NORTH AMERICA INC (AG),PO BOX 0167,BRODHEAD,Wisconsin,USA,53520,
50007751,KUHN-MONTANA INDUSTRIA DE MAQUINAS,"RUA ARNO PINI 1380, PETROPOLIS",PASSO FUNDO,Sao Paulo,Brazil,99050-130,
50003083,KUKER RANKEN INC (SK),6510 216th WE Suite E,Mountlake Terrace,Washington,USA,98043,
50001738,KUKER-RANKEN INC. (CH/SK/SUR),6510 216TH SW #E,MOUNTLAKE TERRACE,Washington,USA,98043,
50000307,L S INSTRUMENTS - (SK),5333-F S MINGO ROAD,TULSA,Oklahoma,USA,74146,
50007973,L&D AG SERVICE INC (AG),PO BOX 208,HARTLAND,Minnesota,USA,56042-0208,
50001446,L&W ENGINEERING EQUIPMENT LIMITED,"PO BOX 539, PORT OF SPAIN",PORT OF SPAIN,TT/Not assigned,"Trinidad,Tobago",0,
50001760,LA CASA DEL INGENIERO SA,AVENIDA COLON #544,TEGUCIGALPA,HN/Not assigned,Honduras,11101,
50007690,LAIRD MANUFACTURING LLC (AG),531 SOUTH HWY 59,MERCED,California,USA,95341,
50003445,LAMB FARMS INC (SGIS),3490 N 500 E,LEBANON,Indiana,USA,46052,
50007830,LANDMARK IMPLEMENT (AG),PO BOX 675,HOLDREGE,Nebraska,USA,68949,
50008313,LANDOLL CORPORATION (AG),1900 NORTH STREET,MARYSVILLE,Kansas,USA,66508,
50007101,LANDSCAPE SUPPORT SERVICES,P.O BOX 55307,SHERMAN OAKS,California,USA,91413,
50000312,LANNAN'S SUPPLY CO (channel),"862 LINCOLN DRIVE, UNIT A",SHERIDAN,Wyoming,USA,82801,
50000313,LASCO INC (CH/SK/SUR),3413 ROGER B CHAFFEE BLVD SE STE 10,GRAND RAPIDS,Michigan,USA,49548,
50000316,LASER PRODUCTS LLC (CH),201 FAIRBURN INDUSTRIAL BLVD,FAIRBURN,Georgia,USA,30213,
50000770,LASER SERVICE CO.,PO BOX 204,ONEALS,California,USA,93645,
50000466,LASER SPECIALISTS INC (SK),19879 W 156TH STREET,OLATHE,Kansas,USA,66062,
50003486,LATEC MACHINE CONTRO INC.,240 THAMES ROAD W,EXETER,Ontario,Canada,N0M 1S3,
50004919,LAUGHLIN INDUSTRIES INC,12301 E. MARGINAL WAY SOUTH,SEATTLE,Washington,USA,98168,
50006276,LAUREL HIGHLANDS CONSTRUCTION SUPPL,1333 EISENHOWER BLVD.,JOHNSTOWN,Pennsylvania,USA,15904,
50008145,LDE CORPORATION INC (AG),PO BOX 3876,GILLETTE,Wyoming,USA,82716,
50008429,LEADING EDGE EQUIPMENT (AG),PO BOX 1108,DEVILS LAKE,North Dakota,USA,58301,
50006401,LECO CONCRETE FORMS & SUPPLY INC (C,2525 IVY STREET EAST,CUMMING,Georgia,USA,30041,
50000318,LEE COUNTY REPROGRAPHICS INC (SK),12920 METRO PARKWAY,FORT MYERS,Florida,USA,33912,
50004683,LEE JENSEN SALES CO (CH),101 W TERRA COTTA AVE,CRYSTAL LAKE,Illinois,USA,60014,
50000686,LEICA (SK),SUITE 250 5051 PEACHTREE CORNERS CI,NORCROSS,Georgia,USA,30092,
50000561,LENGEMANN OF FLORIDA,PO BOX 39,ALTOONA,Florida,USA,32702,
50008006,LEO AGRICULTURE LLC (AG),W5370 COUNTY HWY DR,MONROE,Wisconsin,USA,53566,
50004878,LIDDELL CONSTRUCTION SUPPLY INC (CH,2620 CHURN CREEK ROAD,REDDING,California,USA,96002,
50007278,LIDER MAP S.A.,SUPER CARRETERA ITAIPU KM 2.5 ESQ P,HERNANDARIAS - ALTO PARANA,PY/Not assigned,Paraguay,7220,
50009919,LIEBHERR-LOGISTICS GMBH,ST. VITUS 1,KIRCHDORF/ ILLER  D-88457,DE/Not assigned,Germany,#,
50007645,LIEBHERR-WERK TELFS GMBH,HANS LIEBHERR STRASSE 35,TELFS,Tyrol,Austria,6410,
50008820,LIGCHINE INTERNATIONAL CORPORATION,3429 KNOBS VALLEY DR.,FLOYDS KNOBS,Indiana,USA,47119,
50004732,LIGHTWAVE TECHNOLOGY,14 STEPHENSON ROAD,BAYSWATER NORTH,Victoria,Australia,3153,
50009954,LINCOLN CONTRACTORS SUPPLY (CH),11111 W HAYES AVE.,MILWAUKEE,Wisconsin,USA,53227,
50009091,LINCO-PRECISION LLC (AG),PO BOX 37,EL PASO,Illinois,USA,61738-0037,
50003346,LINDER INDUSTRIAL MACHINERY COMPANY,1601 SOUTH FRONTAGE ROAD,PLANT CITY,Florida,USA,33563,
50000809,"LINEAR POSITIONING, INC",1805 N.W. INDIAN HILLS DR.,BLUE SPRINGS,Missouri,USA,64015,
50005191,LITTLE MORDEN SERVICE (1987) LTD,BOX 1540,MORDEN,Manitoba,Canada,R6M 1B4,
50004968,LIUGONG CONSTRUCTION MACHINERY N.A.,22220 MERCHANTS WAY SUITE 100,KATY,Texas,USA,77449,
50005024,LIVINGSTON MACHINERY COMPANY,PO BOX 666,CHICKASHA,Oklahoma,USA,73023,
50007197,LOCATORS AND SUPPLIES INC. (CH),1614 W. FIR AVE,FERGUS FALLS,Minnesota,USA,56537,
50005783,LODERMEIERS INC.,38241 COUNTY 6 BLVD,GOODHUE,Minnesota,USA,55027,
50007742,LOEWEN WELDING (AG),PO BOX 66,MATSQUI,British Columbia,Canada,V4X 3R2,
50007727,LOFTNESS SPECIALIZED EQUIPMENT (AG),PO BOX 337,HECTOR,Minnesota,USA,55342,
50009520,LORD CORPORATION,111 LORD DR,CARY,North Carolina,USA,27511,
50004174,LOROM WEST,1035 MISSION COURT,FREMONT,California,USA,94539,
50000101,LOUISIANA DIGITAL (SK),817 W UNIVERSITY,LAFAYETTE,Louisiana,USA,70506,
50008645,"LOUP ELECTRONICS, INC. (AG)",3030 N. 40TH ST.,LINCOLN,Nebraska,USA,68504,
50004306,"LS INSTRUMENTS, INC (CH/SK)",5333-F SOUTH MINGO ROAD,TULSA,Oklahoma,USA,74146,
50001862,M & M SERVICE COMPANY (SGIS),1600 HISTORIC OLD RT 66,LITCHFIELD,Illinois,USA,62056,
50001744,M&M CONSTRUCTION SUPPLY (CH),115 RAINBOW INDUSTRIAL BLVD,RAINBOW CITY,Alabama,USA,35906,
50007839,"M&N CONSTRUCTION SUPPLY, INC (CH)",PO BOX 12729,WILMINGTON,North Carolina,USA,28405,
50004149,M.V. ASOCIADOS LTDA,DEMOCRACIA 2282,MONTEVIDEO,UY/Not assigned,Uruguay,11800,
50007931,MACALLISTER AGRICULTURE DIVISION (A,8800 BROOKVILLE RD,INDIANAPOLIS,Indiana,USA,46239,
50006196,MACLEAN ENGINEERING,286 BAYVIEW DRIVE,BARRIE,Ontario,Canada,L4N 4Y8,
50000174,MACO - EVANSVILLE BLUE (SK),600 COURT STREET,EVANSVILLE,Indiana,USA,47708,
50009480,"MACRO SALES, INC (CH)","120 EASY STREET, SUITE 5",CAROL STREAM,Illinois,USA,60188,
50001090,MADISON SUPPLY COMPANY (CH),85 E. WASHINGTON AVE,BRIDGEPORT,Connecticut,USA,6604,
50008600,MAHINDRA DO BRASIL INDUSTRIAL LTDA,"AV. 10 DE SETEMBRO, 1097 - CENTRO",DOIS IRMAOS,Rio Grande do Sul,Brazil,93950-000,
50000341,MAINE TECHNICAL SOURCE (SK) - YARMO,494 US RT 1,YARMOUTH,Maine,USA,4096,
50004969,MAKO EQUIPMENT LLC,10859 SOUTH NORWALK BLVD,SANTA FE SPRINGS,California,USA,90670,
50004312,MALLORY CONSULTING AND DESIGN SERVI,1524 PRINCETON AVE,MODESTO,California,USA,95350,
50003353,MALLORY PRECISION AG INC.,PO BOX 4,BURLEY,Idaho,USA,83318,
50005537,MANITOWOC CRANE GROUP,1565 BUCHANAN TRAIL EAST,SHADY GROVE,Pennsylvania,USA,17256-0021,
50007703,MANUFACTURERA FEHR SA DE CV (AG),"CAMPO 4. NO 8, COL:CAMPO 4",CUAUHTEMOC,Chihuahua,Mexico,31607,
50001521,"MANZER EQUIPMENT, INC (AG)",54877 HIGHWAY 20,OSMOND,Nebraska,USA,68765,
50001682,MAPLE LANE FARM SERVICE INC.,9545 CONC. 6 N RR #6,MOUNT FOREST,Ontario,Canada,N0G 2L0,
50005639,MAQUINAS AGRICOLAS JACTO S.A.,"RUA DR LUIS MIRANDA , 1650",POMPEIA,Sao Paulo,Brazil,17580-000,
50007962,MAREX INC. (CH),11331 INDUSTRIAL RD,MANASSAS,Virginia,USA,20109,
50005153,MARION AG SERVICES,20160 NE MAIN STREET,ST. PAUL,Oregon,USA,97137,
50009800,MARK MCCABE TRACTOR SALES LTD (AG),"77 SUNNYWOOD ROAD, RR#5",LINDAY,Ontario,Canada,K9V 4R5,
50008359,MARTIN DEERLINE (AG),17104-118 AVENUE,EDMONTON,Alberta,Canada,T5S 2L7,
50006007,MARTIN EQUIPMENT (CH/SK/SUR),400 W. MARTIN DRIVE,GOODFIELD,Illinois,USA,61742,
50008442,MARTIN SULLIVAN (AG),"250 EAST MAIN STREET, SUITE 402",GALESBURG,Illinois,USA,61401-4723,
50000349,MARTRONIC ENGINEERING INC (CH),874 PATRIOT DRIVE UNIT D,MOORPARK,California,USA,93021,
50009261,MARVAL LTDA (AG),RUTA H 60 # 86,RENGO,CL/Not assigned,Chile,2940000,
50009863,MARX REPAIR (AG),54659 838TH RD,BATTLE CREEK,Nebraska,USA,68715,
50008733,MASS DEPOT LLC (CH),4500 DONIPHAN DRIVE,NEOSHO,Missouri,USA,64850,
50009464,MAST - LEPLEY SILO INC. (AG),7787 E. LINCOLN WAY,APPLE CREEK,Ohio,USA,44606,
50007905,MAZERGROUP (AG),PO BOX 1720,SWAN RIVER,Manitoba,Canada,R0L 1Z0,
50008896,"MCCONNELL FARM SUPPLY, INC. (AG)",6425 N MISSION ROAD,ROSEBUSH,Michigan,USA,48878,
50004739,"MCCORMICK INTERNATIONAL USA, INC",2590 BRECKINRIDGE BLVD,DULUTH,Georgia,USA,30096,
50008242,MCFARLANE MANUFACTURING,PO BOX 100,SAUK CITY,Wisconsin,USA,53583,
50000391,MCGEE REPROGRAPHICS&DRAFTING WILMIN,2527 S 17TH STREET,WILMINGTON,North Carolina,USA,28401-7705,
50000395,MCGUCKIN HARDWARE (SK),2525 ARAPAHOE,BOULDER,Colorado,USA,80302-6795,
50001727,MCQUADE AND BANNIGAN (CH),1300 STARK ST.,UTICA,New York,USA,13502,
50009862,MDS SUPPLY (CH),820 9TH STREET NORTH,GREAT FALLS,Montana,USA,59401,
50006877,"MEADE EQUIPMENT, LLC. - KINGSPORT",2000 TRI CITIES CROSSING,KINGSPORT,Tennessee,USA,37663,
50003113,MECHANICSVILLE POWER EQUIPMENT (CH),8179 MECHANICSVILLE TPK.,MECHANICSVILLE,Virginia,USA,23111,
50005755,MEDATECH SPECIALTY EQUIPMENT CORPOR,35 SANDFORD FLEMING DRIVE,COLLINGWOOD,Ontario,Canada,L0Y 5A6,
50009005,MEL DAWSON INC.,4325 PACIFIC STREET,ROCKLIN,California,USA,95677,
50007677,MERIDIAN MANUFACTURING (AG),2902 EXPANSION BLVD,STORM LAKE,Iowa,USA,50588,
50003385,MERIDIAN PACIFIC SALES (REP DEALER,7400 NATIONAL DRIVE,LIVERMORE,California,USA,94550,
50000874,MERTIND LTDA,CALLE LIBERTAD 657,SANTA CRUZ DE LA SIERRA,BO/Not assigned,Bolivia,0,
50008287,MESSICKS FARM EQUIPMENT (AG),187 MERTS DRIVE,ELIZABETHTOWN,Pennsylvania,USA,17022,
50007729,MEYER MANUFACTURING CORP (AG),PO BOX 405,DORCHESTER,Wisconsin,USA,54425,
50007872,MEYERS EQUIPMENT MFG CORP (AG),PO BOX 406,DORCHESTER,Wisconsin,USA,54425,
50005231,MICRO AERIAL PROJECTS L.L.C.,1625 NW 89TH TERRACE,GAINESVILLE,Florida,USA,32606,
50001005,MICROGEO,"CAMINO EL CERRO 5154, HUECHURABA",SANTIAGO,RM - Santiago,Chile,8590648,
50001516,MIDWAY RENTALS AND SALES (CH),PO BOX 368,MARQUETTE,Michigan,USA,49855,
50007710,MIDWEST MIXER SERVICE-DODGE CITY (A,PO BOX 1300,DODGE CITY,Kansas,USA,67801-1300,
50007737,MIDWEST MIXER SERVICE-SCOTT CITY (A,PO BOX 572,SCOTT CITY,Kansas,USA,67871,
50009651,MIDWEST READY MIX & EQUIPMENT INC.,1405 E. SD 50,VERMILLION,South Dakota,USA,57069,
50005061,MIDWEST SURVEYING INSTRUMENTS (SK),6113 SOUTH CASS AVENUE,WESTMONT,Illinois,USA,60559,
50008002,MILLER AG,717 FM 1242,ABBOTT,Texas,USA,76621,
50008579,MILLER SELLNER EQUIPMENT INC,1535 20TH ST,SLAYTON,Minnesota,USA,56172,
50008578,MILLER SELLNER EQUIPMENT INC (AG),495 2ND AVE,BINGHAM LAKE,Minnesota,USA,56118,
50000598,"MILLER, BRADFORD & RISBERG - DE PER",3203 FRENCH ROAD,DE PERE,Wisconsin,USA,54115,
50001877,"MILTON RENTAL & SALES CTR, INC. (CH",PO BOX 28,MILTON,Vermont,USA,5468,
50007663,MINDEN MACHINE SHOP INC (AG),1302 K ROAD,MINDEN,Nebraska,USA,68959,
50008095,MINNESOTA AG POWER (AG),1710 NORTH FRANKLIN ST,GLENWOOD,Minnesota,USA,56334,
50008930,MINTO AG LTD,6470 8TH LINE,HARRISTON,Ontario,Canada,N0G 1Z0,
50004201,MIYUKI INC (CH),2367 W 208TH STREET SUITE D6,TORRANCE,California,USA,90501,
50001915,MO VALLEY AGRI SERVICE (SGIS),17800 US HWY 136,ROCK PORT,Missouri,USA,64482,
50000389,MOBILE INSTRUMENT CO (SK) - MOBILE,745 LAKESIDE DRIVE,MOBILE,Alabama,USA,36693,
50008857,"MODALIS NRG, JSC",METALO ST. 7,VILNIUS,LT/Not assigned,Lithuania,2190,
50000875,MODULAR MINING SYSTEMS,3289 EAST HEMISPHERE LOOP,TUCSON,Arizona,USA,85706-5028,
50000830,MOHAVE INSTRUMENT CO.,3206 E. WILLOW STREET,SIGNAL HILL,California,USA,90755,
50007735,MOHRLANG HOLDINGS LLC DBA MMI INTNL,PO BOX 544,BRUSH,Colorado,USA,80723-0544,
50008023,MONROE TRACTOR (AG),PO BOX 370,HENRIETTA,New York,USA,14467-9374,
50000654,MONSEN ENGINEERING (VEGAS),5115 SOUTH VALLEY VIEW,LAS VEGAS,Nevada,USA,89118,
50000777,MONSEN ENGINEERING CO (CH),4899 W 2100 S,WEST VALLEY CITY,Utah,USA,84120,
50007685,MONTAG MANUFACTURING (AG),3816 461ST AVE,EMMETSBURG,Iowa,USA,50536,
50006355,MONTAGUE DEVELOPMENT,10305 PENNY ROAD,RALEIGH,North Carolina,USA,27606,
50001415,"MONTAGUE TOOL & SUPPLY CO., INC (CH",42 BROAD STREET,BRANCHVILLE,New Jersey,USA,7826,
50008056,MORDT TRACTOR & EQUIPMENT CO. (AG),131 HWY H,TROY,Missouri,USA,63379,
50007853,MORGAN LIVESTOCK EQUIPMENT SALES (A,137 JERRY WALKER RD,BOWIE,Texas,USA,76230,
50001350,MORRIS EQUIPMENT LTD,"BOX 5008, 85 YORK RD WEST",YORKTON,Saskatchewan,Canada,S3N 3Z4,
50008035,MORTEC INDUSTRIES (AG),29240 COUNTY RD R,BRUSH,Colorado,USA,80723,
50008037,MOVEERO INC (AG),5453 6TH AVE,ARMSTRONG,Iowa,USA,50514,
50000025,MOVILES DE COSTA RICA (SK),CENTRO COMMERCIAL CRISTAL 14/15,SAN JOSE,CR/Not assigned,Costa Rica,10107,
50000237,"MS. CARITA, INC. (SK)",2159 RESEARCH DRIVE,LIVERMORE,California,USA,94550-3805,
50004956,MTS SYSTEMS CORPORATION,14000 TECHNOLOGY DRIVE,EDEN PRAIRIE,Minnesota,USA,55344,
50008756,MUESER RUTLEDGE CONSULTING ENGINEER,225 WEST 34TH STREET,NEW YORK,New York,USA,10122,
50000094,MUNICIPAL MARKING DISTRIBUTORS (SK),PO BOX 221,GILBERTS,Illinois,USA,60136,
50006366,MURPHY TRACTOR & EQUIPMENT CO. INC.,5375 N. DEERE ROAD,PARK CITY,Kansas,USA,67219,
50009846,MUTUAL SCREW & SUPPLY (CH),68 WEST PASSAIC ST,ROCHELLE PARK,New Jersey,USA,7662,
50009732,"MY PIPELINE SUPPLY, LLC (MPS, LLC)",20302 PARK ROW DR STE 100,KATY,Texas,USA,77449,
50007375,N & S RENTALS INC. (CH),19600 FREDERICK ROAD,GERMANTOWN,Maryland,USA,20876,
50007995,NANCE TRACTOR AND IMPLEMENT INC (AG,450 CHURCH STREET,MCCONNELLS,South Carolina,USA,29726,
50007978,NASCO (AG),901 JANESVILLE AVE,FORT ATKINSON,Wisconsin,USA,53538,
50008900,"NATIONAL FABTRONIX, INC.",28800 HESPERIAN BLVD,HAYWARD,California,USA,94545,
50006293,NAVAG INC.,PO BOX 654,STE. ROSE DU LAC,Manitoba,Canada,R0L 1S0,
50007020,NEKTAR DATA SYSTEMS INC.,14420-154 AVE  NW,EDMONTON,Alberta,Canada,T6V 0K8,
50008406,NELSON MOTORS & EQUIPMENT (AG),PO BOX 300,AVONLEA,Saskatchewan,Canada,S0H 0C0,
50007837,NEW DIRECTION EQUIPMENT CO INC (AG),25728 COTTONWOOD AVE,SIOUX FALLS,South Dakota,USA,57107,
50000410,NEW ENGLAND BLUE (SK),1 ANNGINA DR,ENFIELD,Connecticut,USA,6082,
50000409,NEW ENGLAND REPROGRAPHICS (SK),80 MID TECH DRIVE,WEST YARMOUTH,Massachusetts,USA,02673-2560,
50006467,NEW GROUND TECHNOLOGY INC.,220 E. ANGELA STREET,PLEASANTON,California,USA,94566,
50007869,NEW SOUTH CONSTRUCTION SUPPLY (CH),16 MILLS AVE #2,GREENVILLE,South Carolina,USA,29605,
50005267,NEWCAST-EAST Ltd.,"Elektrodnaya street 9, bld 2",MOSCOW,RU/Not assigned,Russian Fed.,111524,
50007679,NICHOLS SYSTEMS LLC (AG),3221 OLD STATE ROAD,ALEXANDER,Illinois,USA,62601,
50001334,NIEVAS ALBERTO JESUS,"RUTA 226 Y LA RIOJA, PARQUE IND. 74", BUENOS AIRES,Buenos Aires,Argentina,7400,
50000412,NINA CONSTRUCTION SUPPLY CO (SK),PO BOX 1509,AVONDALE,Arizona,USA,85323,
50008044,NOLAND COMPANY (CH),633 WOODLAKE DR,CHESAPEAKE,Virginia,USA,23320,
50001443,NORTH AMERICAN SURVEY SUPPLY (SK),2045 BENNETT RD,PHILADELPHIA,Pennsylvania,USA,19116,
50003267,NORTH CENTRAL COOP (SGIS),PO BOX 299,WABASH,Indiana,USA,46992,
50006392,NORTHERN COUNTRY COOP (SGIS),P.O. BOX 212,STACYVILLE,Iowa,USA,50476,
50008184,NORTHERN PLAINS EQUIPMENT (AG),PO BOX 117,MINOT,North Dakota,USA,58702,
50008206,NORTHERN PLAINS EQUIPMENT (AG),PO BOX 804,MANDAN,North Dakota,USA,58554,
50008684,NORTHWEST FABRICATORS LLC (AG),N4731 ZEBRO RD,BRUCE,Wisconsin,USA,54819,
50005171,NORTHWEST LASERS INC (CH),1355 MENDOTA HEIGHTS ROAD SUITE 190,MENDOTA HEIGHTS,Minnesota,USA,55120,
50000324,NORTHWEST LASERS INC (CH/SK),1355 MENDOTA HEIGHTS ROAD SUITE 190,MENDOTA HEIGHTS,Minnesota,USA,55120,
50009683,NORTHWEST MEASUREMENT SUPPLY (CH/SK,10977 WARREN RD NW,SILVERDALE,Washington,USA,98383,
50004820,NORTRAX CANADA INC,1655 BRITTANIA ROAD EAST,MISSISSAUGA,Ontario,Canada,L4W 1S5,
50007133,"NORTRAX QUEBEC, INC. - LAVAL",4500 AUTOROUTE CHOMEDEY QUEST,LAVAL,Quebec,Canada,H7R 6E9,
50007661,NORWOOD SALES INC (AG),11202 38TH STREET S,HORACE,North Dakota,USA,58047,
50008612,NOVLAN BROTHERS SALES (AG),PO BOX 89,PARADISE HILL,Saskatchewan,Canada,S0M 2G0,
50006232,NRCS-HQ-122B46,"1400 INDEPENDENCE AVENUE, SW  ROOM",WASHINGTON,District of Columbia,USA,20250,
50007462,NUTRIEN AG SOLUTIONS,25204 HWY D,HUGHESVILLE,Missouri,USA,65334,
50008670,NW MIXER FEEDER (AG),PO BOX 326,CALDWELL,Idaho,USA,83606,
50000420,O & C SURVEY EQUIPMENT CORP (SK),PO BOX 27,BOWMANSVILLE,New York,USA,14026-0027,
50009533,OLSON TRADING POST INC (CH),80860 110TH STREET,GLENVILLE,Minnesota,USA,56036,
50003046,OMEGA EMS,5400 HELLYER AVE,SAN JOSE,California,USA,95138,
50004966,OMNI WESTERN INCORPORATED (CH),1202 W BARKLEY AVE,ORANGE,California,USA,92868,
50009318,ON SITE CONCRETE SUPPLY (CH),204 WICKHAM AVE,MIDDLETON,New York,USA,10940,
50004127,ONCORE MANUFACTURING SERVICES,9340 OWENSMOUTH AVENUE,CHATSWORTH,California,USA,91311,
50008168,ONE PASS IMPLEMENTS INC (AG),#,LANGBANK,Saskatchewan,Canada,S0G 2X0,
50004624,ONE TIME CUSTOMER,5950 SHERRY LANE - SUITE 600,DALLAS,Texas,USA,75225,
50003090,OPEN GROUND FARM INC.,PO BOX DRAWER B,BEAUFORT,North Carolina,USA,28516,
50005868,"OPEN LOOP ENERGY, INC. - SAFFORD",PO BOX 391,SAFFORD,Arizona,USA,85548,
50000585,"OPTICAL ENGINEERING, CO.",710 DAVIS CIRCLE,MARIETTA,Georgia,USA,30008,
50007480,OPTIMAS OE SOLUTIONS LTD. - QUEDGEL,WATERWELLS DRIVE,QUEDGELEY,Gloucestershire,United Kingdom,GL22FR,
50001776,OREGON TOOL AND SUPPLY (CH),276 SE STEPHENS STREET,ROSEBURG,Oregon,USA,97470,
50008208,ORTHMAN MANUFACTURING INC (AG),PO BOX B,LEXINGTON,Nebraska,USA,68850-0017,
50001772,"OSCEOLA IMPLEMENT AND SUPPLY, INC.",PO BOX 200,OSEOLA,Nebraska,USA,68651,
50007696,OXBO INTERNATIONAL-BYRON (AG),7275 BYRON ROAD,BYRON,New York,USA,14422,
50000799,OZARK LASER & SHORING - SPRINGFIELD,2247 E. KEARNEY,SPRINGFIELD,Missouri,USA,65803,
50007999,P&C AG SOLUTIONS (AG),9839 SAGINAW ST,REESE,Michigan,USA,48757,
50007811,P&K EQUIPMENT (AG),102 SOUTH VAN BUREN,ENID,Oklahoma,USA,73703,
50007927,P.J. GABER & SONS LTD (AG),LOT 17/18 ELM AVENUE,ROBLIN,Manitoba,Canada,R0L 1P0,
50001452,PACIFIC SURVEY SUPPLY (CH),908 N. RIVERSIDE,MEDFORD,Oregon,USA,97501,
50000827,PADUCAH BLUEPRINT & SUPPLY (CH),999 BROADWAY,PADUCAH,Kentucky,USA,42001,
50006172,PAPE MACHINERY - EUGENE,355 GOODPASTURE ISLAND ROAD #300,EUGENE,Oregon,USA,97401,
50008835,PAPE MACHINERY (CA),355 GOODPASTURE ISLAND ROAD #300,EUGENE,Oregon,USA,97401,
50007678,PAR-KAN COMPANY (AG),2915 WEST 900 SOUTH,SILVER LAKE,Indiana,USA,46982,
50008530,PARKLAND FARM EQUIPMENT 2004 LTD (A,HWY 4 N,NORTH BATTLEFORD,Saskatchewan,Canada,S9A 2Y1,
50007979,PATTISON AG TECH (AG),2777 NORTH SERVICE RD W,SWIFT CURRENT,Saskatchewan,Canada,S9H 5M1,
50009066,Pattison Agriculture,580 York Road West,Yorkton,Saskatchewan,Canada,S3N 3N5,
50007922,PATZ CORPORATION (AG),PO BOX 7,POUND,Wisconsin,USA,54161,
50001308,PAUL SMITH'S COLLEGE -EPP (sb),"P.O. BOX 265, RTS. 86 & 30",PAUL SITHS,New York,USA,12970,
50001481,"PAUL T. EWING, INC (CH)",9353 OCEAN GATEWAY,EASTON,Maryland,USA,21601,
50003234,PC PARTNER LIMITED,"19/F., SHATIN GALLERIA, 18-24 SHAN","FO TAN, SHATIN",New Territories,Hong Kong,0,
50008281,PEABUDY'S INC. (AG),2500 POLO RD,STERLING,Illinois,USA,61081,
50001417,PEARSON EQUIPMENT COMPANY (CH),PO BOX 10128,LYNCHBURG,Virginia,USA,24506,
50007714,PENTA EQUIPMENT INC,73 MAIN ST,GLENCOE,Ontario,Canada,N0L 1M0,
50005002,PENTAGON FARM CENTRE LTD,1-4950 HARRINGTON RIDGE,LACOMBE,Alberta,Canada,T4L 1A8,
50008241,PEQUEA MACHINE INC (AG),PO BOX 399,NEW HOLLAND,Pennsylvania,USA,17557,
50008045,PERKINS SALES INC (AG),3900 COUNTY RD 609,BERNIE,Missouri,USA,63822,
50003422,PESTORIOUS INC (SGIS),20770 707TH AVENUE,ALBERT LEA,Minnesota,USA,56007,
50009515,"PFG AMERICA, LLC (AG)","535 HURRICAN SHOALS CT., SUITE 100",DACULA,Georgia,USA,30019,
50001752,PGA TOUR INC.,100 PGA TOUR BLVD,PONTE VEDRA BEACH,Florida,USA,32082,
50008239,PHIBER MANUFACTURING (AG),PO BOX 58,CRYSTAL CITY,Manitoba,Canada,R0K 0N0,
50007909,PHOENIX FEEDS & NUTRITION (AG),PO BOX 36,NEW HAVEN,Vermont,USA,5472,
50009992,PHOENIX GEOSYSTEMS SURVEY SUPPLIES,"12746 CIMARRON PATH, SUITE 117",SAN ANTONIO,Texas,USA,72849,
50007496,PICCIN MÁQUINAS AGRÍCOLAS (AG),"ROD. SP 318 - KM 245, DISTR. ÁGUA V",SAO CARLOS,Sao Paulo,Brazil,13560-970,
50004691,PIERSOL CONSTRUCTION INC,2233 S. GARFIELD ROAD,AIRWAY HEIGHTS,Washington,USA,99001,
50008459,PIK RITE INC (AG),60 PIK RITE LANE,LEWISBURG,Pennsylvania,USA,17837,
50007479,PIONEER ATHLETICS (SGIS),4529 INDUSTRIAL PKWY,CLEVELAND,Ohio,USA,44135,
50000469,PIPELINE SUPPLY & SERVICE CO INC (C,PO BOX 301130,HOUSTON,Texas,USA,77054,
50008124,PLAINS EQUIPMENT GROUP (AG),150 NW 40TH STREET,LINCOLN,Nebraska,USA,68528,
50005169,PLAISTED COMPANIES (CH),11555 205TH AVENUE NW,ELK RIVER,Minnesota,USA,55330,
50008048,PLATTE VALLEY EQUIPMENT (AG),1093 ROAD W,CLARKSON,Nebraska,USA,68629,
50000470,PLAZA REPROGRAPHICS & SUPPLY (CH),1938 NORTH 1ST STREET #4,GRAND JUNCTION,Colorado,USA,81501,
50008502,PODOLINSKY FARM EQUIPMENT LTD (AG),6057 6057 PETROLIA LANE,PETROLIA,Ontario,Canada,N0N 1R0,
50008013,POLEN IMPLEMENT INC (AG),42255 OBERLIN ELYRIA ROAD,ELYRIA,Ohio,USA,44035,
50007350,POSITION PARTNERS ASIA,"237 ALEXANDRA ROAD, #05-04",SINGAPORE,SG/Not assigned,Singapore,159929,
50005080,POSITION PARTNERS NEW ZEALAND LTD,"UNIT 9, 20 CONSTELLATION DRIVE",ROSEDALE,Auckland,New Zealand,632,
50001101,POSITION PARTNERS NSW,7 TRANSIT DRIVE,CAMPBELLFIELD,Victoria,Australia,3061,
50001098,POSITION PARTNERS QLD - CAMPBELLFIE,7 TRANSIT DRIVE,CAMPBELLFIELD,Victoria,Australia,3061,
50001104,POSITION PARTNERS SA,7 TRANSIT DRIVE,CAMPBELLFIELD,Victoria,Australia,3061,
50005894,POSITION PARTNERS SINGAPORE PTE LTD,"237 ALEXANDRA ROAD, #05-04",SINGAPORE,Singapore,Singapore,159929,
50001114,POSITION PARTNERS VIC - CAMPBELLFIE,7 TRANSIT DRIVE,CAMPBELLFIELD,Victoria,Australia,3061,
50007848,POST EQUIPMENT (AG),2553 320TH ST,ROCK VALLEY,Iowa,USA,51247,
50008055,POULIN GRAIN INC (AG),24 RAILROAD SQUARE,NEWPORT,Vermont,USA,5855,
50004802,POUSSON'S TOOL & FASTENERS (CH) DBA,PO BOX 6473,LAKE CHARLES,Louisiana,USA,70601,
50006084,POWER MIX DE MEXICO S.A DE C.V.SOFO,"BLVD JOSE REBOLLO ACOSTA #215, PARQ",GOMEZ PALACIO,Durango,Mexico,35079,
50005517,"POWER SYSTEMS, LLC - CHANHASSEN",8325 COMMERCE DRIVE,CHANHASSEN,Minnesota,USA,55317,
50003216,POWERMAPS,PO BOX 671,AMERICAN FALLS,Idaho,USA,83211,
50003308,PRAIRIE SUPPLY INC. (CH) - BISMARCK,PO BOX 811,BISMARCK,North Dakota,USA,58502,
50008080,PRAIRIECOAST EQUIPMENT (AG),44158 PROGRESS WAY,CHILLIWACK,British Columbia,Canada,V2R 0W3,
50001804,"PRAIRIELAND FARM SERVICE, INC (SGIS",1132 VETERANS DRIVE,JACKSONVILLE,Illinois,USA,62650,
50007697,PRAIRIELAND PARTNERS LLC (AG),811 EAST 30TH AVE /SUITE F,HUTCHINSON,Kansas,USA,67502,
50001880,PRECISION AG MANAGEMENT LLC (SGIS),1872 OLD US 35,WASHINGTON CT HOUSE,Ohio,USA,43160,
50008468,PRECISION AG SOLUTIONS (AG),39211 133RD STREET,ABERDEEN,South Dakota,USA,57401,
50001692,"PRECISION AG SOLUTIONS, INC",18408 INDIANA AVENUE,DOS PALOS,California,USA,93620,
50007874,PRECISION AGRI SERVICES INC (AG),6630 STATE ROUTE 119,MINSTER,Ohio,USA,45865,
50003283,PRECISION ARGONOMICS,2231 24TH STREET,RICE LAKE,Wisconsin,USA,54868,
50008412,PRECISION FARMING SOLUTIONS (AG),4533 S SCHNELL ROAD,BIRDSEYE,Indiana,USA,47513,
50000475,"PRECISION LASER & INSTRUMENT, INC.",85 11TH STREET,AMBRIDGE,Pennsylvania,USA,15003,
50000502,PRECISION OUTFITTERS-MED TECH RES.,29485 AIRPORT ROAD,EUGENE,Oregon,USA,97402-9524,
50001855,PRECISION PARTNERS (SGIS),421 N. BROADWAY 2,FERGUS FALLS,Minnesota,USA,56537,
50000664,PRECISION PRODUCTS (SK) - LOUISVILL,1400 HUGH AVENUE,LOUISVILLE,Kentucky,USA,40213,
50001854,PREISTER AG SUPPLY (SGIS),30551  430 AVENUE,MONROE,Nebraska,USA,68647,
50008787,PREMIER EQUIPMENT LTD,PO BOX 188,ELMIRA,Ontario,Canada,N3B 2Z6,
50000484,PRESCOTT  E J   VERNON (sb),36 CLARK ROAD,VERNON,Connecticut,USA,6066,
50000097,PRESCOTT E J (CH) -  LAFAYETTE,400 HAMMON DRIVE,LAFAYETTE,Indiana,USA,47905,
50000480,PRESCOTT E J (SK) - GARDINER,PO BOX 600,GARDINER,Maine,USA,4345,
50004185,"PRESISAR, LLC",PO BOX 5376,BENTON CITY,Washington,USA,99320,
50005801,PRGEO COMERCIO DE EQUIPAMENTOS DE,"R. MARECHAL DEODORO, 717, 11o ANDCJ",CURITIBA,Parana,Brazil,80020-320,
50000817,PRINT-O-STAT INC. - YORK,1128 ROOSEVELT AVE SUITE 100,YORK,Pennsylvania,USA,17404,
50003290,PRISM S.C. SYSTEMS (CH/SK),5959 MISSION GORGE RD #104,SAN DIEGO,California,USA,92120,
50000032,PRISM SURVEYING & CONSTRUCTION SYS,"5959 MISSION GORGE ROAD, SUITE 104",SAN DIEGO,California,USA,92120,
50008526,PRO AG EQUIPMENT INC,3057 N WASHINGTON,GRAND FORKS,North Dakota,USA,58203,
50005532,PROALL INTERNATIONAL MANUFACTURING,5810 47 AVENUE,OLDS,Alberta,Canada,T4H 1V1,
50000072,PRO-LINE SURVEY SUPPLY INC (SK),10265 BEACH BLVD,JACKSONVILLE,Florida,USA,32246,
50003268,PROTON ENGINEERING LTD,"512616, DRAKE CHAMBERS",TORTOLA,VG/Not assigned,Brit.Virgin Is.,0,
50007364,"PSL SUPPLIES & SERVICES, LLC (chann",18407 TELGE RD. SUITE V,CYPRESS,Texas,USA,77429,
50007351,PT POSITION PARTNERS INDONESIA,"BELTWAY OFFICE PARK, TOWER B, 5TH F",#,DKI Jakarta Jakarta,Indonesia,12550,
50000292,"Q L ENTERPRISES, INC. / GEOSOLUTION",2670 N BERKLELEY LAKE ROAD NW STE 1,DULUTH,Georgia,USA,30096,
50008871,QUADROCOPTER LLC,3949 NT HWY 40 SUITE F,COLUMBIA FALLS,Montana,USA,59912,
50008169,QUALITY IMPLEMENT CO (AG),PO BOX 159,MUNDAY,Texas,USA,76371,
50001794,QUALITY SUPPLY & TOOL (CH),5722 S HARDING ST.,INDIANAPOLIS,Indiana,USA,46217,
50005130,"R & M EQUIPMENT RENTALS, INC.",2329 29TH AVENUE NORTH,BIRMINGHAM,Alabama,USA,35207,
50001617,RAM TOOL AND SUPPLY CO. INC. (CH),PO BOX 320979,BIRMINGHAM,Alabama,USA,35222,
50000504,RAMCO SURVEY STAKES INC (SK),685 N MAIN STREET,WEST BRIDGEWATER,Massachusetts,USA,2379,
50003418,RANDA ENTERPRISES LLC,42 SOUTH 200 E,BLACKFOOT,Idaho,USA,83221,
50000505,"RANKEN SURVEYING INSTR SERVICE,INC.",1101 S BAILEY STREET,SEATTLE,Washington,USA,98108,
50007722,RAYTEC MANUFACTURING LLC (AG),PO BOX 2339,MARTINDALE,Pennsylvania,USA,17549-0339,
50008091,RCI ENGINEERING LLC (AG),208 RIVER KNOLL DRIVE,MAYVILLE,Wisconsin,USA,53050,
50007711,RCMR INC (AG),PO BOX 140,KIM,Colorado,USA,81049,
50008185,RDO EQUIPMENT COMPANY (AG),PO BOX 7010,FARGO,North Dakota,USA,58106-7010,
50001368,RDO INTEGRATED CONTROLS - MIDWEST,"ATTN: A/P INVOICES (CID), PO BOX 70",FARGO,North Dakota,USA,58106-7010,
50003255,RDO INTEGRATED CONTROLS - WEST, PO BOX 7010,FARGO,North Dakota,USA,58106-7010,
50008059,REAL INDUSTRIES LTD (AG),PO BOX 70,RATHWELL,Manitoba,Canada,R0G 1S0,
50008062,RECORD HARVEST ENTERPRISES INC (AG),14283 SOUTH 2000 RD,NEVADA,Missouri,USA,64772,
50003471,"RED MOUNTAIN RENTALS, LLC",197 E WARNER RD,CHANDLER,Arizona,USA,85225,
50008586,REDHEAD EQUIPMENT (AG),BOX 32098,REGINA,Saskatchewan,Canada,S4N 7L2,
50007393,REDS BUILDING SUPPLIES LLC (CH),41 LEBANON ROAD,NORTH FRANKLIN,Connecticut,USA,6254,
50003536,REGIER EQUIPMENT,PO BOX 164,MADRID,Nebraska,USA,69150,
50006421,RELIABLE EQUIPMENT LLC - MANCHESTER,PO BOX 5647,MANCHESTER,New Hampshire,USA,3108,
50008751,RENO HARDWARE & SUPPLY INC.,PO BOX 91177,LONG BEACH,California,USA,90809,
50009623,RENTAL WAREHOUSE INC (CH),5722 ROUTE 104,OSWEGO,New York,USA,13126,
50008964,RENT-ALL INC. (CH),130 22ND STREET NE,SIOUX CENTER,Iowa,USA,51250,
50007491,RENTALS UNLIMITED - CLARKSBURG (CH),PO BOX 600,CLARKSBURG,Maryland,USA,20871,
50007657,RESHIPA S.A. DE C.V.,CALLEJON RUBI #137 COL EJIDAL,GUASAVE,Sinaloa,Mexico,81020,
50009369,"REX CO., LTD",3-29 NISHINOMIYAHAMA NISHINOMIYA,HYOGO,JP/Not assigned,Japan,6620934,
50005944,RICHARD BAUGHN CONSTRUCTION INC,5274 HWY 226 Spur,JONESBORO,Arkansas,USA,72404,
50000645,RICHMOND MACHINERY & EQUIP CO,PO BOX 6588,RICHMOND,Virginia,USA,23230,
50000515,RICHTER DRAFTING & OFFICE SUPPLY CO,PO BOX 64288,SOUDERTON,Pennsylvania,USA,18964,
50000068,RICKLY HYDROLOGICAL CO (SK),1700 JOYCE AVENUE,COLUMBUS,Ohio,USA,43219,
50007454,RICK'S INSTRUMENT REPAIR & SURVEY S,1616 JUDSON RD. STE. 6R,LONGVIEW,Texas,USA,75601,
50008494,RIEF DESIGN & MANUFACTURING (AG),2410 HWY 51,BANCROFT,Nebraska,USA,68004,
50008329,RIESTERER & SCHNELL (AG),N2909 HIGHWAY 32,PULASKI,Wisconsin,USA,54162,
50004504,RIGHT OF WAY INC (CH),150 EAST ARROW HIGHWAY,SAN DIMAS,California,USA,91773,
50009006,RIO GRANDE CO (CH),500 OSAGE STREET,DENVER,Colorado,USA,80204,
50008263,RITCHIE IMPLEMENT INC,PO BOX 217,COBB,Wisconsin,USA,53526,
50009481,RITE WAY MFG CO LTD,PO BOX 328,IMPERIAL,Saskatchewan,Canada,S0G 2J0,
50007891,RITZVILLE WAREHOUSE (AG),PO BOX 277,ODESSA,Washington,USA,99159,
50003114,RIVER VALLEY AG SERVICES LLC (SGIS),401 E WARREN PO BOX 65,HOPKINS,Missouri,USA,64461,
50001593,RMC INC. DBA ROCKING R HARDWARE (CH,PO BOX 1109,HARRISONBURG,Virginia,USA,22803,
50003429,"ROADTEC, INC.",PO BOX 180515,CHATTANOOGA,Tennessee,USA,37405,
50004601,ROBBINS LASER & TRANSIT CO (CH/SK),2102 GOOD INTENT RD.,DEPTFORD,New Jersey,USA,8096,
50008938,ROBERT BOSCH LLC,38000 HILLS TECH DR.,FARMINGTON HILLS,Michigan,USA,48331,
50009060,"ROBERT BOSCH LLC - SUNNYVALE, CA",384 SANTA TRINITA AVE,SUNNYVALE,California,USA,94085,
50009265,ROBERT BOSCH LTDA,AVENIDA JUSCELINO KUBITSCHEK DC OLI,CURITIBA,Parana,Brazil,81450-902,
50000519,ROBERTS SUPPLY CO INC (SK),PO BOX 7,SPRINGFIELD,Oregon,USA,97477,
50000932,ROBERTS SURVEYING SUPPLIES,5758 RIDGE RD.,PARMA,Ohio,USA,44129,
50008108,ROBERTSON IMPLEMENTS (AG),2464 SOUTH SERVICE ROAD WEST,SWIFT CURRENT,Saskatchewan,Canada,S9H 5J8,
50001839,ROCK RIVER LUMBER & GRAIN CO (SGIS),"5502 LYNDON RD, PO BOX 68",PROPHETSTOWN,Illinois,USA,61277,
50008291,ROCKY MOUNTAIN EQUIPMENT (AG),3939 - 1ST AVE S,LETHBRIDGE,Alberta,Canada,T1J 4P8,
50007098,ROCKY MOUNTAIN EQUIPMENT BROKERS IN,17 PLAINS DRIVE,BUFFALO,Wyoming,USA,82834,
50007290,"ROCKY MOUNTAIN SERVICES, LLC. (CH)",16212 E. PRENTICE LANE,CENTENNIAL,Colorado,USA,80015,
50000968,"ROCKY MTN TRANSIT & LASER, INC. - M",612 WEST CONFLUENCE AVE.,MURRAY,Utah,USA,84123,
50004834,"ROEDER BROS., INC.",P.O. BOX 27,BELLEVUE,Iowa,USA,52031,
50008107,ROLAND MACHINERY COMPANY,816 N. DIRKSEN PARKWAY,SPRINGFIELD,Illinois,USA,62702,
50000771,ROPER LASER CO.,"1171 SOUTH MARIETTA PKWY SE, SUITE:",MARIETTA,Georgia,USA,30060-2843,
50007715,ROTO MIX (AG),PO BOX 1724,DODGE CITY,Kansas,USA,67801-1724,
50007689,ROVIBEC INC (AG),475 ROUTE DU PORT,NICOLET,Quebec,Canada,J3T 1W3,
50000999,RUST SALES INC.,2964 164TH AVE. SE,HARWOOD,North Dakota,USA,58042,
50009609,RX NETWORKS INC,800-1201 WEST PENDER ST,VANCOUVER,British Columbia,Canada,V6E 2V2,
50007674,S3 MANUFACTURING (AG),2180 OMAN DRIVE,SWIFT CURRENT,Saskatchewan,Canada,S9H 4J8,
50003226,SADDLE MOUNTAIN SUPPLY CO (SGIS),448 CAMELIA ST NE,ROYAL CITY,Washington,USA,99357,
50000529,SAFE-T-LITE (CH),1051 N EMERALD,MODESTO,California,USA,95351,
50007740,SALFORD BBI INC (AG),PO BOX 630,CORNELIA,Georgia,USA,30531,
50005653,SALFORD GROUP INC (AG),364018 MCBETH ROAD,SALFORD,Ontario,Canada,N0J 1W0,
50003449,SAME DEUTZ FAHR DEUTSCHLAND GMBH,DEUTZ FAHR STRASSE 1,LAUINGEN,Bavaria,Germany,89415,
50003245,SAME DEUTZ FAHR ITALY S.P.A,"VIALE FRANCESCO CASSANI, 15",TREVIGLIO,Bergamo,Italy,24047,
50006448,SAME DEUTZ-FAHR Zetelice,Industrijska 5,Zupanja,HR/Not assigned,Croatia,32270,
50005889,SANDVIK,1218 REDONDA STREET,WINNIPEG,Manitoba,Canada,R2C 2Z2,
50003246,SATEL OY,OY MERINIITYNKATU 17,SALO,Western Finnland,Finland,24100,
50000536,SAVANNAH BLUEPRINT (SK),11 EAST YORK ST,SAVANNAH,Georgia,USA,31401,
50007109,SAW MILL SUPPLIES INC (CH),50 SAWMILL RIVER ROAD,HASTINGS ON HUDSON,New York,USA,10706,
50007670,SCALE-TEC (AG),16027 HIGHWAY 64,ANAMOSA,Iowa,USA,52205,
50004749,SCHAEFER EQUIPMENT AND COMPANY,PO BOX 653,EMPORIA,Kansas,USA,66801,
50009865,SCHAFFER EQUIPMENT (CH),6025 PILLSBURY AVE S,MINNEAPOLIS,Minnesota,USA,55419,
50008066,SCHLAUDERAFF IMPLEMENT CO (AG),60240 US HWY 12,LITCHFIELD,Minnesota,USA,55355,
50008970,SCOTT INDUSTRIAL SYSTEMS INC,PO BOX 1387,DAYTON,Ohio,USA,45401,
50009508,SDF SOLUTIONS INC.,8 COPPERHILL LANE,KILLARNEY ROAD,New Brunswick,Canada,E3A 9V2,
50007660,SEEDMASTER MANUFACTURING LTD (AG),1 SOUTH PLAINS ROAD WEST,EMERALD PARK,Saskatchewan,Canada,S4L 1C6,
50000540,SEILER INSTRUMENT&MFG CO (CH/SK),3433 TREE COURT INDUSTRIAL BLVD,SAINT LOUIS,Missouri,USA,63122,
50001015,SELBY'S (CH/SK),2595 ENTERPRISE AVE.,BILLINGS,Montana,USA,59102,
50008289,SEMA EQUIPMENT (AG),1201 1/2 7TH STREET NW,ROCHESTER,Minnesota,USA,55901,
50000550,"SENECA BLUEPRINT CO., INC. (SK)",PO BOX 255,BUFFALO,New York,USA,14225,
50004338,SENSORS AND SOFTWARE INC,1040 STACEY COURT,MISSISSAUGA,Ontario,Canada,L4W 2X8,
50000836,"SERVI TEODOLITOS,C.A.",Av. Avila edf Midas P1 apto 1-A ent,CARACAS,Distrito Federal,Venezuela,1011,
50004907,"SERVICE RENTALS & SUPPLIES, INC (CH",147 KALAPA PLACE,KAHULUI,Hawaii,USA,96732,
50000752,SERVICE SUPPLY CORP. (CH),5885 GRAYSON ROAD,HARRISBURG,Pennsylvania,USA,17111,
50000224,SESCO INC.- MIKE DEGEN (SK),1311 JEFFERSON DAVIS HWY,FREDERICKSBURG,Virginia,USA,22401,
50001785,SESCO-DSS (CH/SK),1311 JEFFERSON DAVIS HWY.,FREDERICKSBURG,Virginia,USA,22401,
50001832,SGS CRYSTAL (SGIS),13845 HWY 66,CRYSTAL,North Dakota,USA,58222,
50005863,"SHAFER CONTRACTING CO., INC.",30405 REGAL AVENUE,SHAFER,Minnesota,USA,55074,
10830001,SHANGHAI TOPCON SOKKIA TECHNOLOGY A,"389 SECTION E, 5TH FLOOR, BUILDING",SHANGHAI,Shanghai,China,200131,
50006944,SHIMMICK/TRAYLOR/GRANITE JV,"3049 UALENA STREET, SUITE 1102",HONOLULU,Hawaii,USA,96819,
50007359,SHORE-TEK INC.  (CH),PO BOX 480,TEMPLETON,California,USA,93465,
50000797,SIERRA LASER,55 RICHVALE HIGHWAY,OROVILLE,California,USA,95965,
50008755,SIEVERS EQUIPMENT CO (AG),PO BOX 217,HAMEL,Illinois,USA,62046,
50003231,SIGMATRON,2201 LANDMEIER ROAD,ELK GROVE VILLAGE,Illinois,USA,60007,
50008221,SILO JM LAMBERT (AG),"4250, RUE VACHON",DRUMMONDVILLE,Quebec,Canada,J2B 6V4,
50009449,SILOKING CANADA INC.,3300 PUTNAM ROAD,PUTNAM,Ontario,Canada,N0L 2B0,
50008073,SIMPLISTIC LINES,5358 LINE 34 PERTH EAST RR#5,STRATFORD,Ontario,Canada,N5A 6S6,
50001791,SIMPLOT (SGIS),2555 SOUTH YELLOWSTONE HWY,SAINT ANTHONY,Idaho,USA,83445,
50001796,SIMPLOT (SGIS),PO BOX 431,PROSSER,Washington,USA,99350,
50001828,SIMPLOT (SGIS),591 S BRUCE ROAD,OTHELLO,Washington,USA,99344,
50001829,SIMPLOT (SGIS),2005 E Chicago St,BOISE,Idaho,USA,83605,
50001831,SIMPLOT (SGIS),"HWY 2 EAST, PO BOX 590",EAST GRAND FORKS,Minnesota,USA,56721,
50001833,SIMPLOT (SGIS),"723 DETWEILER DRIVE, PO BOX 312",GRAFTON,North Dakota,USA,58237,
50001835,SIMPLOT (SGIS),3192 E. 49TH N,IDAHO FALLS,Idaho,USA,83401,
50001910,SIMPLOT (SGIS),1013 UMATILLA RIVER ROAD PO BOX 108,UMATILLA,Oregon,USA,97882,
50003435,SIMPLOT (SGIS),2005 E CHICAGO ST,CALDWELL,Idaho,USA,83605,
50007494,SIMPLOT (SGIS),1700 SW 4TH STREET,ONTARIO,Oregon,USA,97914,
50008250,SIMPLOT (SGIS),PO BOX 327,BERESFORD,South Dakota,USA,57004,
50007698,SIOUX AUTOMATION CENTER INC (AG),877 FIRST AVE NW,SIOUX CENTER,Iowa,USA,51250,
50007709,SIOUX STEEL COMPANY (AG),PO BOX 1265,SIOUX FALLS,South Dakota,USA,57101,
50005121,"SITESURV USA, INC (CH/SK)",197 SW 20TH WAY,DANIA BEACH,Florida,USA,33004,
50003419,SKYHAWK CONSULTING (SGIS),46958 PRAIRIE VIEW DRIVE,BURBANK,South Dakota,USA,57010,
50007982,SLOAN IMPLEMENT (AG),PO BOX 80,ASSUMPTION,Illinois,USA,62510,
50000626,SMITH  J C INC (SK),345 PEAT ST,SYRACUSE,New York,USA,13210,
50008310,SMITH & ASSOCIATES EUROPE BV (AG),"ALPHA TOWER, DE ENTREE 45",AMSTERDAM,Noord-Holland,Netherlands,1101 BH,
50001808,SMITH FERTILIZER & GRAIN (SGIS),1650 QUEBEC STREET,KNOXVILLE,Iowa,USA,50138,
50008063,"SMS EQUIPMENT, INC. (LAVAL, QC)",1800 MONTGOLFIER,LAVAL,Quebec,Canada,H7T 0L9,
10140001,SOKKIA CORPORATION - CANADA,1050 STACEY COURT,MISSISSAUGA,Ontario,Canada,L4W 2X8,
10700001,SOKKIA KOREA CO LTD,2FL. SESHIN BLDG. 541 DOSAN-DAERO,"GANGNAM-GU, SEOUL",Soul-t´ukpyolsi,South Korea,6013,
10650001,SOKKIA SINGAPORE POSITIONING SALESP,1 JALAN KILANG TIMOR #09-01 PACIFIC,SINGAPORE,Singapore,Singapore,159303,
10590001,"SOKKIA TOPCON CO., LTD","547, ISHIDA, URUSHIYAMA",YAMAGATA-SHI,Yamagata,Japan,9902196,
50005152,SONSRAY MACHINERY LLC,6565 EAST 30TH STREET,YUMA,Arizona,USA,85365,
50006460,SONSRAY MACHINERY LLC (RESALE),6565 EAST 30TH STREET,YUMA,Arizona,USA,85365,
50008174,SOUTH COUNTRY EQUIPMENT (AG),1731 MAIN STREET NORTH,MOOSE JAW,Saskatchewan,Canada,S6J 1L6,
50001869,SOUTH METRO RENTAL (CH),9300 W. 202ND ST.,LAKEVILLE,Minnesota,USA,55044,
50009247,SOUTH PLAINS PRECISION AG INC (AG),2810 N QUINCY,PLAINVIEW,Texas,USA,79072,
50007680,SOUTHERN EQUIPMENT DISTRIBUTORS INC,3320 W WOODROW WILSON AVE,JACKSON,Mississippi,USA,39209,
50000655,SOUTHERN GRAPHICS & SUPPLY (SK),PO BOX 8186,ROANOKE,Virginia,USA,24014,
50006396,SOUTHERN SALES & MARKETING,P.O. BOX 2483,NATCHITOCHES,Louisiana,USA,71457,
50001428,SOUTHERNCARLSON INC. (CH),PO BOX 3036,OMAHA,Nebraska,USA,68103,
50009236,SPECIALTY SUPPLY BUILDING PRODUCTS,118 S. LIPSCOMB ST.,AMARILLO,Texas,USA,79106,
50006642,SPECTO TECHNOLOGY,1061 E. ELIZABETH AVENUE,LINDEN,New Jersey,USA,7036,
50004145,"SPEC-WEST, INC. (CH)",10054 MILLS STATION ROAD,SACRAMENTO,California,USA,95827,
50005476,"SPENCER FLUID POWER, INC",19308 68TH AVE S,KENT,Washington,USA,98032,
50000588,SPILLER'S,PO BOX 1638,LEWISTON,Maine,USA,4240,
50009877,SPIRENT COMMUNICATIONS PLC,ASPEN WAY,PAIGNTON,Devon,United Kingdom,TQ4 7QR,
50006028,SPRAY CENTER ELECTRONICS INC,9721 W  FLIGHT DRIVE,SPOKANE,Washington,USA,99224,
50001140,SPRAYER SPECIALTIES (AG),4151 SE CAPITOL CIRCLE,GRIMES,Iowa,USA,50111,
50004462,SSC TOOL SUPPLY CO INC (CH),1658 ROUTE 228 SUITE 400,CRANBERRY TOWNSHIP,Pennsylvania,USA,16066,
50004190,"ST ENGINEERING LEEBOY, INC",500 LINCOLN COUNTY PARKWAY EXTENSIO,LINCOLNTON,North Carolina,USA,28092,
50008511,ST JOHN HARDWARE & IMPLEMENT CO (AG,PO BOX 28,FAIRFIELD,Washington,USA,99012,
50000297,STAKEMILL (CH),10741 ENDEAVOUR WAY SUITE D,LARGO,Florida,USA,33777,
50009180,"STAN HOUSTON EQUIPMENT COMPANY, INC",3020 W 112TH ST,SIOUX FALLS,South Dakota,USA,57104,
50000621,"STAR EQUIPMENT, LTD",PO BOX 8438,DES MOINES,Iowa,USA,50301,
50001837,STAR OF THE WEST MILLING CO (SGIS),PO BOX 146,FRANKENMUTH,Michigan,USA,48734,
50009854,STATEWIDE GEOSYSTEMS (CH/SK),12474 CEDAR TRAIL,HELOTES,Texas,USA,78023,
50007908,STAUFFER SOLID (AG),4221 FERGUSON CORNERS RD,RUSHVILLE,New York,USA,14544,
50009016,STEINHART FARM SERVICE INC. (AG),4116 HWY 80,PLATTEVILLE,Wisconsin,USA,53818,
50004933,STELCO INC,386 WILCOX STREET,HAMILTON,Ontario,Canada,L8N 3T1,
50008461,STERLING EQUIPMENT AND REPAIR,235 E 4TH STREET,COTTONWOOD,Minnesota,USA,56229,
50007665,STI SCALES INC (AG),1413 WEST MARY STREET,GARDEN CITY,Kansas,USA,67846,
50007863,"STOLTZ MFG, LLC (AG)",PO BOX 527,MORGANTOWN,Pennsylvania,USA,19543,
50003387,STONEY CREEK RENTALS (CH),PO BOX 99,BLANDON,Pennsylvania,USA,19510,
50007528,STORRER IMPLEMENT INC. (AG),1801 EAST STREET,IOLA,Kansas,USA,66749,
50009257,"STRIBLING EQUIPMENT, LLC",PO BOX 6038,JACKSON,Mississippi,USA,39288,
50008214,STROBEL MANUFACTURING INC (AG),105 SOUTH GREEN STREET,CLARKS,Nebraska,USA,68628,
50008614,STRYTEN MANUFACTURING LLC,"13000 DEERFIELD PARKWAY, BLDG 200",MILTON,Georgia,USA,30004-8532,
50008039,STUTHEIT IMPLEMENT (AG),73136 75 HWY,AUBURN,Nebraska,USA,68305,
50005419,STW TECHNIC LP,3000 NORTHWOODS PARKWAY  SUITE 240,PEACHTREE CORNERS,Georgia,USA,30071,
50008178,SUDENGA INDUSTRIES INC (AG),PO BOX 8,GEORGE,Iowa,USA,51237-0008,
50004426,SULLY-MILLER CONTRACTING CO,135 S STATE COLLEGE BLVD #400,BREA,California,USA,92821,
50007976,SUMMERS MANUFACTURING CO INC (AG),PO BOX 580,DEVILS LAKE,North Dakota,USA,58301,
50005116,SUNBELT RENTALS INC (CH),PO BOX 410928,CHARLOTTE,North Carolina,USA,28241,
50007583,"SUNBELT RENTALS, INC. (CH/MC)",2341 DEERFIELD DR.,FT MILL,South Carolina,USA,29715,
50008229,SUNRISE CIRCUITS (AG),1673 VAUGHNS GROVE-FAIRVEIW RD,PEMBROKE,Kentucky,USA,42266,
50007673,SUNRISE COOPERATIVE INC (AG),2025 WEST STATE STREET,FREMONT,Ohio,USA,43420,
50008353,"SUNSTATE EQUIPMENT CO., LLC (CH)",5552 EAST WASHINGTON,PHOENIX,Arizona,USA,85034,
50007702,SUPER STARS MIXER (AG),CAMPO 10 096,CUAUHTEMOC,Chihuahua,Mexico,31613,
50001548,SUPERIOR INSTRUMENT (CH),PO BOX 57,MILLDALE,Connecticut,USA,6467,
50007741,SUPREME INTERNATIONAL (AG),PO BOX 6450,WETASKIWIN,Alberta,Canada,T9A 2R3,
50001399,SUREFIRE AG SYSTEMS,9904 NORTH HWY 25,ATWOOD,Kansas,USA,67730,
50009826,SUREFIRE ELECTRONICS LLC (AG),11965 S. HWY 25,ATWOOD,Kansas,USA,67730,
50000164,SURVCON (SK),1470 C WILLIAMS DRIVE,MARIETTA,Georgia,USA,30066,
50004559,"SURVCON, INC (CH/SK)",1470 WILLIAMS DRIVE SUITE C,MARIETTA,Georgia,USA,30066,
50009406,SURVEY GEODESIA CONSTRUCCION Y,"RESIDENCIAL OBRAJUELO, CASA 12 POLG","SAN MIGUEL, SAN JORGE",SV/Not assigned,El Salvador,1101,
50005029,SURVEY INSTRUMENT SALES INC,24037 ACACIA,REDFORD,Michigan,USA,48239,
50000219,SURVEY SUPPLY INC. (CH),PO BOX 403,MILFORD,Delaware,USA,19963,
50000681,SURVEYORS EXCHANGE (SK),PO BOX 111037,ANCHORAGE,Alaska,USA,99516,
50004524,"SURVEYORS INSTRUMENT SERVICES,LLC (",6091 JOHNS ROAD SUITE 4,TAMPA,Florida,USA,33634,
50000684,SURVEYORS MATERIALS INC (SK),8875 FROST AVENUE,SAINT LOUIS,Missouri,USA,63134,
50005195,SURVEYORS SOURCE LLC (CH/SK),4317 N  16TH STREET,PHOENIX,Arizona,USA,85016,
50000062,SURVEYOR'S SUPPLY (CH),3806 CARLISLE NE,ALBUQUERQUE,New Mexico,USA,87107,
50001711,"SURVEYOR'S SUPPLY CO., INC. (SK)",94-356 UKE'E STREET UNIT A,WAIPAHU,Hawaii,USA,96797,
50006945,SWOZI AG,WERKSTRASSE 6,DIEPOLDSAU,St. Gallen,Switzerland,9444,
50007687,SYDELL INC (AG),46935 SD HWY 50,BURBANK,South Dakota,USA,57010-9605,
50007936,SYDENSTRICKER IMPLEMENT (AG),PO BOX 280,MEXICO,Missouri,USA,65265,
50001115,SYNERGY POSITIONING SYSTEMS LTD,PO BOX 100-450 NORTH SHORE MAIL CEN,AUCKLAND,Auckland,New Zealand,745,
50001483,TAYLOR RENTAL (CH),550 STATE RT. 3,PLATTSBURGH,New York,USA,12901,
50007324,TBG EQUIPMENT LLC. (CH),127A MOTHERLODE LANE,BELGRADE,Montana,USA,59714,
50001355,TERRISGPS LTD.,"183 FREEMAN RD, UNIT 7",GATINEAU,Quebec,Canada,J8Z 2A7,
50008685,THE GATOR CENTER (AG),2650 200TH STREET,FORT DODGE,Iowa,USA,50501,
50007062,THE SURVEY SHOP (CH),1910 E. 14TH STREET,TUCSON,Arizona,USA,85719,
50003473,THE TORO COMPANY,8111 LYNDALE AVENUE,BLOOMINGTON,Minnesota,USA,55420,
50001866,THOMAS TOOL (CH),PO BOX 1013,ST CLOUD,Minnesota,USA,56302,
10260001,TIERRA S.P.A.,"VIA LOMBARDORE, 223",LEINI,Turin,Italy,10040,
50001705,TIGER SUPPLIES,27 SELVAGE ST.,IRVINGTON,New Jersey,USA,7111,
50001590,TIMERIX S.A. (DBA MA),PAYSANDU 1271,MONTEVIDEO,UY/Not assigned,Uruguay,11100,
50003317,Tino Barrasso International Inc,"3500, rang du Haut St-Francois",Laval,Quebec,Canada,H7E 0A7,
50009910,TINYMOBILEROBOTS,SOFIENLYSTVEI 9,MALLING,DK/Not assigned,Denmark,8340,
50009987,TITAN MACHINERY (AG) - HIGHMORE,302 IS-14,HIGHMORE,South Dakota,USA,57345,
50008522,TITAN MACHINERY INC (AG),1810 26TH AVE SW,JAMESTOWN,North Dakota,USA,58401,
50008531,TITAN MACHINERY INC (AG),PO BOX 159,WINGER,Minnesota,USA,56592,
50008533,TITAN MACHINERY INC (AG),PO BOX 435,CROOKSTON,Minnesota,USA,56716,
50008541,TITAN MACHINERY INC (AG),1201 HWY 59 NORTH,MARSHALL,Minnesota,USA,56258,
50008633,TITAN MACHINERY INC (AG),PO BOX 1286,MOORHEAD,Minnesota,USA,56561,
50008911,TITAN MACHINERY INC (AG),PO BOX 393,LISBON,North Dakota,USA,58054-0393,
50008923,TITAN MACHINERY INC (AG),2491 STATE HWY 200,ADA,Minnesota,USA,56510,
50009113,TITAN MACHINERY INC (AG),2096 COLLEGE WAY,FERGUS FALLS,Minnesota,USA,56537,
50009119,TITAN MACHINERY INC (AG),644 EAST BEATON DRIVE,WEST FARGO,North Dakota,USA,58078,
50009122,TITAN MACHINERY INC (AG),3934 9TH AVE SE,WATERTOWN,South Dakota,USA,57201-9196,
50009182,TITAN MACHINERY INC (AG),1701 GOVERNORS DRIVE,CASSELTON,North Dakota,USA,58012,
50009138,TITAN MACHINERY INC (AG),7955 179TH AVE SE,WAHPETON,North Dakota,USA,58075,
50000763,"TN HYDRAULICS, INC",5153 TURNS ROAD,SPRINGFIELD,Tennessee,USA,37172,
50001675,TOMOE SYSTEM INC.,"DAIKAI DORI 7-1-17, HYOGO PROVINCE",KOBE,Hyogo,Japan,6520803,
50003273,TOP PRECISION INC. (CH),322 N. HELENA ST.,SPOKANE,Washington,USA,99202,
50000896,TOPAZ ARCH ENGR SUPPLY INC (CH),35 POND PARK ROAD,HINGHAM,Massachusetts,USA,2043,
50000021,TOPCOM S.A. DE C.V. (SK),FINAL 3 AVE NTE Y 13 CALLE ORIE #93,"SANTA TECLA, LA LIBERTAD",SV/Not assigned,El Salvador,1101,
10880001,Topcon Agriculture America,W5527 HWY 106,Fort Atkinson,Wisconsin,USA,53538,
10890001,TOPCON AGRICULTURE CANADA INC.,3702 KINNEAR PLACE,"Saskatoon, SK",Saskatchewan,Canada,S7P 0A6,
10960001,TOPCON AGRICULTURE S.R.L.,Corso Valdocco 2,Turin,Turin,Italy,10122,
10110001,TOPCON CORPORATION,"75-1, HASUNUMA-CHO, ITABASHI-KU",TOKYO,Tokyo,Japan,1748580,
10450001,Topcon Deutschland Positioning GmbH,Alter Teichweg 55b,Hamburg,Hamburg,Germany,22049,
10870001,TOPCON ELECTRONICS GmbH & CO. KG,INDUSTRIESTRASSE 7,GEISENHEIM,DE/Not assigned,Germany,65366,
10430001,TOPCON EUROPE POSITIONING B.V.,ESSEBAAN 11,CAPELLE A/D IJSSEL,NL/Not assigned,Netherlands,2908 LJ,
50004238,TOPCON Inc Internal SO,7400 National Drive,LIVERMORE,California,USA,94550,
10AJ0000,TOPCON INSTRUMENTS THAILAND,"77/162 SINNSATHORN TOWER , 37TH FLO","KLONGTONSAI, KLONGSAN, BANGKOK",TH/Not assigned,Thailand,10600,
50003221,TOPCON KOREA CORPORATION,"402, JIHO BLDG 30, BANGBAE JUNGANG-",SEOUL,Soul-t´ukpyolsi,South Korea,6684,
10A00005,TOPCON L.A.B. (SERVICE),7400 NATIONAL DRIVE,LIVERMORE,California,USA,94550,
10660001,"TOPCON OPTICAL(H.K.), LTD.","2-4/F MEECO INDUSTRIAL BLDG, 53-55",SHATIN,New Territories,Hong Kong,#,
10A00001,TOPCON POSITIONING ASIA,"75-1, HASUNUMA-CHO",ITABASHI-KU,Tokyo,Japan,1748580,
10520001,Topcon Positioning Belgium,Z3-DOORNVELD 141,ZELLIK,BE/Not assigned,Belgium,1731,
10A60001,TOPCON POSITIONING FRANCE SAS,3 ROUTE DE LA REVOLTE,SAINT-DENIS,FR/Not assigned,France,93200,
10490001,Topcon Positioning GB Ltd.,Sandy Way,Staffordshire,GB/Not assigned,United Kingdom,B77 4DU,
10850001,Topcon Positioning Italy S.R.L.,Via Caduti del Lavoro 40,ANCONA,IT/Not assigned,Italy,60131,
10720001,TOPCON POSITIONING MIDDLE EAST & AF,LIU-J11 DUBAI AIRPORT FREE ZONE,DUBAI,AE/Not assigned,Utd.Arab Emir.,DAFZA,
10280001,TOPCON POSITIONING SPAIN S.L,Avenida De La Industria 35,TRES CANTOS,Madrid,Spain,28760,
10AH0000,TOPCON POSITIONING(ASIA)MALAYSIA SD,"NO. 6 JALAN PENSYARAH U1/28, HICOM",SHAH ALAM,Selangor,Malaysia,40150,
10230001,TOPCON PRECISION AG AFRICA PTY LTD,P.O. BOX 7144,FLEMWOOD,ZA/Not assigned,South Africa,2572,
10270001,Topcon Precision AG Europe,"AVDA. INDUSTRIA, 35, TRES CANTOS",MADRID,Madrid,Spain,28760,
10220001,TOPCON PRECISION AGRICULTURE,14 PARK WAY,MAWSON LAKES,South Australia,Australia,5095,
10570001,"TOPCON SERVICE CO., LTD.","75-1 HASUNUMA-CHO , ITABASHI-KU",TOKYO,Tokyo,Japan,1748580,
10630001,TOPCON SINGAPORE POSITIONING PTE LT,1 JALAN KILANG TIMOR #09-01 PACIFIC,SINGAPORE,Singapore,Singapore,159303,
10710001,TOPCON SOKKIA INDIA PVT. LTD.,"UNIT NO. 101 TO 106A, 1ST FLOOR",GURGAON,Haryana,India,122001,
10560001,TOPCON SOKKIA POSITIONING JAPAN CO.,"75-1, HASUNUMA-CHO, ITABASHI-KU",TOKYO,Tokyo,Japan,1748580,
10AF0001,TOPCON SOLUTIONS INC.,297 COMMONWEALTH DRIVE,CAROL STREAM,Illinois,USA,60188,
10760004,TOPCON SOLUTIONS STORE -,8975 HENKEL'S LANE #704,ANNAPOLIS JUNCTION,Maryland,USA,20701,
10760003,"TOPCON SOLUTIONS STORE - CONCORD, N","58 CHENELL DRIVE, ROUTE 106",CONCORD,New Hampshire,USA,3301,
10190001,"TOPCON SOLUTIONS STORE - NILES, MI",PO BOX 496,NILES,Michigan,USA,49120,
10990001,"TOPCON SOLUTIONS STORE - PORTLAND,","6015 NE 80TH, SUITE #400",PORTLAND,Oregon,USA,97218,
10900001,"TOPCON SOLUTIONS STORE - SAXONBURG,",7075 NORTH NOAH DRIVE,SAXONBURG,Pennsylvania,USA,16056,
10760002,"TOPCON SOLUTIONS STORE - STOW, MA",P.O.BOX 720,STOW,Massachusetts,USA,01775-0720,
10880002,TOPCON TECHNOLOGY LTD,CIRENCESTER ROAD,MINCHINHAMPTON,Gloucestershire,United Kingdom,GL6 9BH,
10800001,Topcon Technology Ltd.,"Cirencester Road, Minchinhampt",Gloucestershire,GB/Not assigned,United Kingdom,GL6 9BH,
10530001,"TOPCON YAMAGATA CO., LTD.",547 AZAISHIDA URUSHIYAMA,YAMAGATA-SHI,Yamagata,Japan,9902196,
50004806,TOPEKA BLUEPRINT AND SUPPLY CO INC,608 SW JACKSON STREET,TOPEKA,Kansas,USA,66603,
50006292,TOPOELEMENT EQUIPMENT,27211 ORTEGA HWY STE B,SAN JUAN CAPISTRANO,California,USA,92675,
50007701,TORMEX INDUSTRIAS (AG),"CALLE SAN PABLO # 100 INT B, DESARR",TORREON,Coahuila,Mexico,27400,
50007734,TOTAL SCALE SERVICE (AG),PO BOX 5156,BOISE,Idaho,USA,83706,
50001748,TOTAL TOOL SUPPLY (CH/SK),PO BOX 4069,SAINT PAUL,Minnesota,USA,55104,
50003210,TOTAL TOOL SUPPLY INC. (SK),315 N. PIERCE STREET,ST. PAUL,Minnesota,USA,55104,
10270003,TPAE-AGCO,"AVDA. INDUSTRIA, 35, TRES CANTOS",MADRID,Madrid,Spain,28760,
50003165,TPS-BRAMCO,1801 WATTERSON TRAIL,LOUISVILLE,Kentucky,USA,40299,
50009105,TRACTOR CENTRAL LLC (AG),E4650 COUNTY ROAD BB,MENOMONIE,Wisconsin,USA,54751,
50001771,TRAMELLI INDUSTRIAL (CH),8112 PAGE AVENUE,ST. LOUIS,Missouri,USA,63130,
50001968,TRANSIT & LEVEL CLINIC. LLC (SK),201 TOWERVIEW COURT,CARY,North Carolina,USA,27513,
50000995,TRANSIT &LEVEL CLINIC BEAUMONT (CH),7414 EASTEX FWY,BEAUMONT,Texas,USA,77708,
50009117,TRANSIT TECHNICAL SERVICES LTD.,"6209 - 44ST., SUITE C, OFFICE 4",LLOYDMINSTER,Alberta,Canada,T9V 1V8,
50001436,TRANSIT WORKS (CH/SK/SUR),"6000 S. 58TH STREET, SUITE A",LINCOLN,Nebraska,USA,68516,
50001365,TRASCO  GREENSBORO (sb),128 Kirk Avenue SW,Roanoke,Virginia,USA,24011,
50005415,TREAD CORPORATION,176 EASTPARK DRIVE,ROANOKE,Virginia,USA,24019,
50007328,TRI COUNTY CONTRACTORS SUPPLY (CH),154 WAYSIDE AVE,WEST SPRINGFIELD,Massachusetts,USA,1089,
50001886,TRI COUNTY FARMERS ASSOCIATION INC.,PO BOX 807,BRINKLEY,Arkansas,USA,72021,
50009593,TRI SUPPLY & EQUIPMENT INC (CH),110 COLUMBIA DRIVE,SALISBURY,Maryland,USA,21801,
50000195,TRIANGLE BLUEPRINTS (CH),1907 PENNSYLVANIA,COLUMBIA,Missouri,USA,65202,
50007389,TRIBUILD INC,"329 INTERLOCKEN PARKWAY, SUITE 120",BROOMFIELD,Colorado,USA,80021,
50000853,TRI-CITY BLUEPRINT (CH),833 GOODE STREET,BRISTOL,Virginia,USA,24201,
50004365,T-RICKS SURVEY SUPPLIES (CH),PO BOX 16487,JACKSONVILLE,Florida,USA,32245,
50000090,T-RICKS SURVEY SUPPLIES (SK),PO BOX 16487,JACKSONVILLE,Florida,USA,32245-6487,
50008431,TRIMBLE INC.,5475 KELLENBURGER ROAD,DAYTON,Ohio,USA,45424-1099,
50008374,TRIOLIET BV,KLEIBULTWEG 59,OLDENZAAL,Overijssel,Netherlands,7575 BW,
50004990,TROCHU MOTORS,BOX 130,TROCHU,Alberta,Canada,T0M 2C0,
50000229,"TRUE SURVEY SUPPLY, INC. (SK)",992-A HWY 395 S,ADDY,Washington,USA,99101,
50001651,TSI INCORPORATED,500 CARDIGAN ROAD,SHOREVIEW,Minnesota,USA,55126,
50008435,TTG EQUIPMENT LLC (AG),5068 E 100 N,BLUFFTON,Indiana,USA,46714,
50000649,TTQ DE MONTERREY S.A.DE C.V.,"FELIX U. GOMEZ 1512 NTE. COL, TERMI",MONTERREY,Nuevo Leon,Mexico,64580,
50007695,TUBELINE MANUFACTURING LTD (AG),"6455 REID WOODS DR, RR 4",ELMIRA,Ontario,Canada,N3B 2Z3,
50008781,TUDO AGRICOLA COMERCIO DE PECAS E,AV. JUSECLINO K. DE OLVEIRA N 7295,VACARIA,Rio Grande do Sul,Brazil,95210-216,
50007105,TUFFMAN EQUIPMENT & SUPPLY (CH),501 U.S. ROUTE 20 EAST,NORWALK,Ohio,USA,44857,
50004987,TURNING POINT SYSTEMS GROUP (CH),6480 N INDUSTRIAL ROAD,MILWAUKEE,Wisconsin,USA,53223,
50000523,U S SURVEY SUPPLY,PO BOX 2127,BANDON,Oregon,USA,97411,
50003044,U.S. MARKETS INC.,"909 SOUTH ROUTE 83, SUITE 200",ELMHURST,Illinois,USA,60126,
50008642,UGLEM NESS CO (AG),PO BOX 478,NORTHWOOD,North Dakota,USA,58267,
50008409,UNDERWOOD FARMS PRECISION INST (AG),PO BOX 639,ROSCOE,Texas,USA,79545,
50007162,"UNITED CONSTRUCTION & FORESTRY, LLC",51 US ROUTE 1; STE G,SCARBOROUGH,Maine,USA,4074,
50000734,UNITED RENTALS - TRENCH SAFETY #G09,PO BOX 30129,COLLEGE STATION,Texas,USA,77842,
50000367,UNITED RENTALS SHARED SERVICE CENTE,"ACCOUNTS PAYABLE, PO BOX 30129",COLLEGE STATION,Texas,USA,77842,
50000902,"UNITED RENTALS, INC (DANBURY, CT) #",PO BOX 30129,COLLEGE STATION,Texas,USA,77842,
50000577,"UNITED RENTALS, INC (MIDDLETOWN, DE",PO BOX 30129,COLLEGE STATION,Texas,USA,77842,
50005012,UNITIS CONTRACTOR SUPPLIES (CH),4935 MERCURY STREET,SAN DIEGO,California,USA,92111,
50007676,UNVERFERTH MFG CO (AG),27612 TEMPLE AVE,SHELL ROCK,Iowa,USA,50670-9369,
50007728,UNVERFERTH MFG CO INC DELPHOS DIV (,PO BOX 357,KALIDA,Ohio,USA,45853,
50001637,U-RENT SALES (channel),1360 FRANKLIN ST,JOHNSTOWN,Pennsylvania,USA,15905,
50009383,"U-RENT SALES, LLC (CH)",201 7TH STREET,SEWARD,Pennsylvania,USA,15954,
50009034,USA KANGAROO,PO BOX 111,FAULKTON,South Dakota,USA,57438,
50007926,VADERSTAD (AG),PO BOX 123,LANGBANK,Saskatchewan,Canada,S0G 2X0,
50007708,VADERSTAD INC (AG),PO BOX 1030,WAHPETON,North Dakota,USA,58075,
50009955,VAIL EQUIPMENT RENTALS LLC (CH),16087 S WILMONT RD,SAHUARITA,Arizona,USA,85629,
50008217,VALLEY AGRICULTURE SOFTWARE,3950 SOUTH K ST,TULARE,California,USA,93274,
50009957,"VALLEY CONSTRUCTION SUPPLY, INC (CH",POBOX 5030,LANCASTER,California,USA,93539,
50007832,VALLEY PLAINS EQUIPMENT (AG),PO BOX 1958,JAMESTOWN,North Dakota,USA,58401,
50007942,VALMETAL INC (AG),230 BOULEVARD INDUSTRIAL,ST GERMAIN,Quebec,Canada,J0C 1K0,
50008058,VAN WALL EQUIPMENT (AG),PO BOX 575,PERRY,Iowa,USA,50220,
50008657,VANDER HYDE REPAIRS (AG),960 DAVIS RD,CHATHAM,Virginia,USA,24531,
50007963,VANDERMAQ (AG),"AV. DR. TEIXEIRA DE BARROS, 1541",SAO CARLOS,Sao Paulo,Brazil,13574-033,
50008284,VANEE FARMS CENTRE (AG),510 36 STREET N,LETHBRIDGE,Alberta,Canada,T1H 5H6,
50008497,VANTAGE SOUTHEAST,PO BOX 3995,CORDELE,Georgia,USA,31010,
50000833,VARDAL SURVEY & LASER SYSTEMS (CH),1204 WEST JEFFERSON STREET,JOLIET,Illinois,USA,60435,
50007827,VERMEER CORPORATION (AG),PO BOX 230,PELLA,Iowa,USA,50219,
50007694,VERMEER CORPORATION (GRISWOLD) (AG),63724 RICHLAND ROAD,GRISWOLD,Iowa,USA,51535,
50000792,"VERMEER MANUFACTURING, INC.","ACS DIVISION, 1210 VERMEER ROAD EAS",PELLA,Iowa,USA,50219,
50008346,VESTA INGENIERIA (AG),FRANCIA 134,ROSARIO,Santa Fe,Argentina,2000,
50007192,VIBRANALYSIS INC.,79 ALEXANDER AVE  6TH FLOOR,BRONX,New York,USA,10454,
50002995,VIKING/SATELITE(REP DEALER CONSIGN),7400 NATIONAL DRIVE,LIVERMORE,California,USA,94550,
50001431,"VIRGINIA CONTRACTORS SUPPLY, INC. (",9106 OWENS DRIVE,MANASSAS PARK,Virginia,USA,20111,
50005929,VM COMERCIO DE EQUIPAMENTOS AGRICOL,"RUA UBERABA, 85;  NOVAL ALIANCA SUL",RIBEIRAO PRETO,Sao Paulo,Brazil,14027-090,
50005412,"VOITH MERI ENVIRONMENTAL SOLUTIONS,",PO BOX 1262,APPLETON,Wisconsin,USA,54912,
50006326,VOLVO CONSTRUCTION EQUIPMENT AB,#,GOTEBORG,SE/Not assigned,Sweden,405 08,
50008768,VONROHR EQUIPMENT (CH),2 NEW MAIN STREET,EAST ORANGE,New Jersey,USA,7018,
50001851,WABASH VALLEY SERVICE CO,909 NORTH COURT ST,GRAYVILLE,Illinois,USA,62844,
50006928,WACO SCAFFOLDING & SUPPLY (channel),P.O BOX 2264,MANKATO,Minnesota,USA,56002,
50007930,WAGNER EQUIPMENT COMPANY,PO BOX 17620,DENVER,Colorado,USA,80217-0620,
50008230,WAHLBERG TEXAS CORP (AG),421 W 3RD STREET #1712,AUSTIN,Texas,USA,78701,
50004964,"WAKARUSA AG SERVICES, LLC (AG)",711 EAST WATERFORD STREET,WAKARUSA,Indiana,USA,46573,
50004166,WE DO EQUIPMENT (channel),1932 ELISE CIRCLE,CORONA,California,USA,92879,
50008017,WEARDA IMPLEMENT (AG),18 DIVISION STREET SOUTH,CLARA CITY,Minnesota,USA,56222,
50008650,WEBBS MACHINERY LTD (AG),4704-44 STREET,VERMILION,Alberta,Canada,T9X 1Z6,
50004460,"WEILER, INC",815 WEILER DRIVE,KNOXVILLE,Iowa,USA,50138,
50006862,WEISSER DISTRIBUTING INC. (CH),501 E. 1ST STREET,TEA,South Dakota,USA,57064,
50001784,WELCH BROS (CH),1050 ST CHARLES ST,ELGIN,Illinois,USA,60120,
50003565,WELLS IMPLEMENT INC,320 E MAIN STREET,PLYMOUTH,Nebraska,USA,68424,
50004741,WENCO INTERNATIONAL MINING SYSTEMS,803 BEAUDESERT ROAD,ARCHERFIELD,Queensland,Australia,4108,
50008336,WEST ENTERPRISES (AG),615 N VAIL STREET,GENESEO,Illinois,USA,61254,
50008384,WEST PLAINS INC (AG),350 4TH STREET NE,BEACH,North Dakota,USA,58621,
50000240,WESTERN DATA SYSTEMS (CH),14722 REGNAL STREET,HOUSTON,Texas,USA,77039,
50001940,WESTERN ENGINEERING SUPPLY (CH),343 STEALTH COURT,LIVERMORE,California,USA,94551,
50007712,WESTERN RANCH SUPPLY (AG),PO BOX 1497,BILLINGS,Montana,USA,59103,
50005052,WESTERN SALES (1986) LTD (AG),405 HWY 7 W - BOX 968,ROSETOWN,Saskatchewan,Canada,S0L 2V0,
50000223,WESTERN SUPPLIES INC (CH),PO BOX 551,WICHITA FALLS,Texas,USA,76307,
50008338,WESTERN TRACTOR (AG),#48 BROXBURN BLVD,LETHBRIDGE,Alberta,Canada,T1J 4P4,
50006423,WESTSIDE CONCRETE ACCESSORIES INC (,5800 SE ALEXANDER STREET,HILLSBORO,Oregon,USA,97123,
50001655,WHARTON CONTRACTORS EQUIPMENT CORP,7724 CRESCENT BLVD RT. 130,PENNSAUKEN,New Jersey,USA,8110,
50008693,WHATCOM MANUFACTURING (AG),405 BIRCH BAY LYNDEN RD,LYNDEN,Washington,USA,98264,
50007956,WHAYNE SUPPLY COMPANY (AG),PO BOX 872,NORTH AURORA,Illinois,USA,60542,
50005717,WHEATBELT SALES (2003)  INC.,BOX 40 HWY 5 EAST,WADENA,Saskatchewan,Canada,S0A 4J0,
50000004,WHITE CAP CONSTRUCTION SUPPLY (CH),PO BOX 4955,Orlando,Florida,USA,32802-4955,
50001671,"WHITE OAK EQUIPMENT, INC. (CH)",358 KINGS HIGHWAY,FREDERICKSBURG,Virginia,USA,22405,
50006880,WHITLOCK BROTHERS INC. (CH),PO BOX 12150,NORFOLK,Virginia,USA,23541,
50006681,WHO BUILT CREATIVE BUILDERS INC.,P.O. BOX 1568,SHAFTER,California,USA,93263,
50001818,WILBUR-ELLIS,60784 120TH AVENUE,CLAREMONT,Minnesota,USA,55924,
50000736,WILD WOMAN COMPANY INC.,PO BOX 323,MILL NECK,New York,USA,11765,
50004215,"WIRTGEN AMERICA, INC",6030 DANA WAY,ANTIOCH,Tennessee,USA,37013,
50001920,WISCONSIN SHORING & SUPPLY (CH/SK),2539 PEIPER ROAD,COTTAGE GROVE,Wisconsin,USA,53527,
50004906,"WORLDWIDE MACHINERY, LTD",2951 CHAMBERS ROAD,AURORA,Colorado,USA,80011,
50008325,WRIGHT IMPLEMENT LLC (AG),3225 CARTER RD,OWENSBORO,Kentucky,USA,42301,
50007681,WW LIVESTOCK SYSTEMS (AG),PO BOX 720,BERTHOUD,Colorado,USA,80513,
50006180,WYLACO CONSTRUCTION SUPPLY CO (CH),315 VALLEJO STREET,DENVER,Colorado,USA,80223,
50007875,WYLIE IMPLEMENT & SPRAY CENTER (AG),702 EAST 40TH ST.,LUBBOCK,Texas,USA,79404,
50009036,"XAVIER FARM SERVICES, LLC (AG)",PO BOX 850,HILLMAR,California,USA,95324,
50008689,Y AND C SALES (CH),4 PRAG BLVD # 203,MONROE,New York,USA,10950,
50004685,YES INDUSTRIAL SUPPLY (CH),39 W PITTSBURGH STREET,DELMONT,Pennsylvania,USA,15626,
50000727,"YOAS SERVICES, INC. (CH)",509 WEST FOURTH STREET,WILLIAMSPORT,Pennsylvania,USA,17701,
50008299,YOUNGBLUT AG (AG),PO BOX 261,DYSART,Iowa,USA,52224,
50008469,YOUNGS EQUIPMENT INC (AG),PO BOX 3117,REGINA,Saskatchewan,Canada,S4P 3G7,
50008029,ZEITLOW DISTRIBUTING CO (AG),PO BOX 424,MCPHERSON,Kansas,USA,67460,
50007941,ZIEGLER INC (AG),901 WEST 94TH STREET,BLOOMINGTON,Minnesota,USA,55420,
